{
  "type": "FeatureCollection",
  "features": [
    {
      "type": "Feature",
      "id": 1,
      "geometry": {
        "type": "MultiPolygon",
        "coordinates": [
          [
            [
              [109.95234231290029, -7.7632300609149665],
              [109.95189737162464, -7.7631846813877274],
              [109.95155220419072, -7.7631494770350171],
              [109.95091756539296, -7.763097640588926],
              [109.95089404109081, -7.7630982084093647],
              [109.9508716675696, -7.7630987474130517],
              [109.95060686708491, -7.7631051276780223],
              [109.95057676611059, -7.7634049549278723],
              [109.95057142231872, -7.7634455691194946],
              [109.95057142234732, -7.7634883209784151],
              [109.9505607341128, -7.763517178106067],
              [109.9505479077597, -7.7635332098251473],
              [109.95051584355888, -7.7635289350895347],
              [109.95037155730481, -7.763522522052706],
              [109.95020677704237, -7.7634973821322211],
              [109.95017156463346, -7.7634959738402571],
              [109.95009691640766, -7.7634973822103435],
              [109.95002226676233, -7.7635030160058731],
              [109.94998705604723, -7.7635100585870189],
              [109.94989973020702, -7.7635325935758193],
              [109.949827897552, -7.7635438615830585],
              [109.94977860187437, -7.7635621718730796],
              [109.94975184122916, -7.7635861162698792],
              [109.94973916399786, -7.7636311873875545],
              [109.94973916388172, -7.7636790754255687],
              [109.94974479762074, -7.7637171038461128],
              [109.9497560661232, -7.7637452726513638],
              [109.94977860196153, -7.763798794804794],
              [109.94978423506585, -7.763869218578713],
              [109.94977719311986, -7.7639495017622044],
              [109.94975888304636, -7.7639762625855662],
              [109.94973353035108, -7.7639973895746905],
              [109.94970676915354, -7.7640157003421617],
              [109.94966310701928, -7.7640213337311801],
              [109.94960958488184, -7.7640213335557453],
              [109.94954197763022, -7.7640410528753661],
              [109.94948423089109, -7.7640720393677514],
              [109.94941803264669, -7.7640903494460636],
              [109.94938141221313, -7.7641016166402261],
              [109.94933915804867, -7.7641044344022552],
              [109.94928281944749, -7.7640847154333841],
              [109.94917651074221, -7.7640499735781008],
              [109.94917658660948, -7.7640654248428422],
              [109.94917685129808, -7.7641187499826554],
              [109.94917860277801, -7.7644729497231451],
              [109.94902582828209, -7.7645276692387162],
              [109.94895017755341, -7.7645620554087076],
              [109.94877136838775, -7.764593002955416],
              [109.94870603297299, -7.764613634872843],
              [109.94859943486001, -7.7646445827268531],
              [109.94847908180809, -7.7646583379177088],
              [109.94816616474387, -7.7646927240044281],
              [109.94801142511545, -7.764740864957707],
              [109.94782573838701, -7.7647752517531323],
              [109.94765036701597, -7.7647958842914111],
              [109.94751282068025, -7.7648302698151976],
              [109.94733057219408, -7.7649059208020521],
              [109.94722397431376, -7.7649884481181841],
              [109.94714488538915, -7.7650572222240566],
              [109.94703140863065, -7.765115678561135],
              [109.94693856477109, -7.7651363107846869],
              [109.94676663310285, -7.7651225555591452],
              [109.94666691186623, -7.7650916080460259],
              [109.94659469985737, -7.7650606599407945],
              [109.94646747006621, -7.7650090795827476],
              [109.94635743303056, -7.7650262738890499],
              [109.94612619793529, -7.7650567683617675],
              [109.94620123078799, -7.7652759047010056],
              [109.94623689626494, -7.7654052117063754],
              [109.94624387964491, -7.7654913747480334],
              [109.94623086728166, -7.7655604960341531],
              [109.94622564395074, -7.7655882441694724],
              [109.94619826831379, -7.7656154128282724],
              [109.94625013159525, -7.7656276162657498],
              [109.9462967297779, -7.7656162809479854],
              [109.94634710742189, -7.7656118728794086],
              [109.94639496486752, -7.7656232080788419],
              [109.94644156304764, -7.7656515450039327],
              [109.94649760691838, -7.7656603608785231],
              [109.94657506080829, -7.7656710657697303],
              [109.94651126356119, -7.7658964222854765],
              [109.94647178102487, -7.7658884270623991],
              [109.94638329596668, -7.7662358421841393],
              [109.94681885697959, -7.7663676759147977],
              [109.94706153955876, -7.7652365173278035],
              [109.94742338065643, -7.7652550730458803],
              [109.94741178434646, -7.7653710476301319],
              [109.94737003261667, -7.7657723210900933],
              [109.94730276682353, -7.7660761753316283],
              [109.94710436088002, -7.7669826896952614],
              [109.94697997978679, -7.7674658640263168],
              [109.94687851175614, -7.7677540692414704],
              [109.94674815489982, -7.768096878447329],
              [109.94665210904559, -7.7683494584418185],
              [109.94651138443537, -7.7687195326020761],
              [109.94685061043808, -7.7688282595906388],
              [109.946984603101, -7.7684758897545523],
              [109.9473411567855, -7.7686083866692384],
              [109.94737062068218, -7.7686242860551582],
              [109.94729820502378, -7.7688357963837165],
              [109.94785550712437, -7.768995023741585],
              [109.94827662834733, -7.7691249231714981],
              [109.94830805628119, -7.7690264501963631],
              [109.9484905524175, -7.7685143964185981],
              [109.94863305057231, -7.7685739051544926],
              [109.94873365901354, -7.7685985444006791],
              [109.94880552240583, -7.768436339404742],
              [109.94895540659402, -7.7684917756244962],
              [109.94884248022042, -7.7688449309890402],
              [109.94857761364747, -7.7697524547886374],
              [109.94845975893817, -7.7701205568154261],
              [109.94853466075391, -7.7701547229718493],
              [109.94861646262645, -7.7702186940902651],
              [109.94888485728336, -7.7702842130918857],
              [109.94894732924728, -7.770303965476117],
              [109.9487961587788, -7.7707092571370335],
              [109.94892099532998, -7.7707394796336517],
              [109.94885397776865, -7.7710666822503178],
              [109.94903247999834, -7.7710946453316652],
              [109.94899441782759, -7.7712266694008312],
              [109.94912822608001, -7.7712628714542902],
              [109.94924572219638, -7.7712829118736666],
              [109.94930156072382, -7.7712947811926005],
              [109.94929712986597, -7.7715118594320218],
              [109.94929500366509, -7.7715959993898824],
              [109.9492967589493, -7.7716610259399426],
              [109.94930336643674, -7.7717031167011177],
              [109.94930996973424, -7.7717461634214544],
              [109.9493271342602, -7.7717834968304587],
              [109.94935288178591, -7.7718390203169863],
              [109.94942944498423, -7.771893714423924],
              [109.94957780007468, -7.7719935265861784],
              [109.94970979461888, -7.7720386488033073],
              [109.94979563567696, -7.7718148684052526],
              [109.94986262631568, -7.7716402281409103],
              [109.94991474222944, -7.771504057583579],
              [109.94994973788499, -7.7714145153729648],
              [109.94996680721097, -7.7713865432217331],
              [109.95001740683182, -7.7713193651299841],
              [109.95006302980997, -7.7712865326634057],
              [109.95017421110585, -7.7711897489274868],
              [109.95022807307514, -7.7711420238521933],
              [109.95035303339884, -7.7710619298718413],
              [109.95038572444567, -7.77103712377468],
              [109.95040377742772, -7.7710132392864342],
              [109.95040979439004, -7.7709251168030669],
              [109.95033627186878, -7.7708703562277179],
              [109.95033018728613, -7.7708637642654201],
              [109.95036568133126, -7.7707841582633232],
              [109.95038342727193, -7.7707765516366196],
              [109.9503981322521, -7.7707735102336351],
              [109.95046889404982, -7.7708094520805604],
              [109.95048245413925, -7.7707795963717325],
              [109.95056667863362, -7.7706397679547239],
              [109.95060144557338, -7.7705907502624143],
              [109.95062887218353, -7.7705599004751411],
              [109.9507965447328, -7.7706100503720679],
              [109.95086616754226, -7.7704604606060013],
              [109.95093041931828, -7.7702860312776547],
              [109.95097815335671, -7.770155206563869],
              [109.95102030382307, -7.7700698358744367],
              [109.95110273240179, -7.769919092872656],
              [109.95116500787917, -7.7698064900656041],
              [109.95135900289357, -7.7695196252435217],
              [109.95148528777418, -7.769330797682402],
              [109.95155668805157, -7.7692145806402761],
              [109.95163173360898, -7.769100193168696],
              [109.95167197005685, -7.7690511879427619],
              [109.95174688836224, -7.7689877216044803],
              [109.95183455621404, -7.768929740343693],
              [109.95191121956293, -7.7688971940147828],
              [109.95200063969627, -7.7688683158002236],
              [109.95205172634202, -7.7688557111970846],
              [109.95212107470431, -7.7688322407154038],
              [109.95217219289704, -7.7688069073864057],
              [109.95231087156992, -7.7687672369447567],
              [109.95234555519463, -7.7687509551928171],
              [109.95244514520385, -7.7687208990730356],
              [109.95256398415987, -7.7685314992296775],
              [109.95245131163169, -7.7684815064946839],
              [109.95225897827105, -7.7683805468824483],
              [109.95226811592698, -7.7683615739059544],
              [109.95239695540977, -7.7680373408804568],
              [109.95257937989579, -7.7677555612284452],
              [109.95267029008694, -7.7675485982968775],
              [109.95278440862202, -7.7673010162791556],
              [109.9527844087353, -7.7671636847933208],
              [109.95267996054841, -7.7670824466642241],
              [109.95273758909099, -7.7669997086251223],
              [109.95277086419705, -7.7670076310215563],
              [109.95280661436105, -7.7669432602664648],
              [109.95283384812865, -7.7669073604336791],
              [109.95283384800528, -7.766833085934234],
              [109.95283261140236, -7.7667996618952397],
              [109.95283137307098, -7.7667724276950656],
              [109.95282765927995, -7.7667513835700568],
              [109.95281899396845, -7.7667253882141063],
              [109.95274843285969, -7.7666634922963045],
              [109.95273110207846, -7.7666251167043496],
              [109.95269644043833, -7.7665421765806686],
              [109.9525862657412, -7.7663812477498331],
              [109.9525491294438, -7.766334207854781],
              [109.95252065713726, -7.7663243048491424],
              [109.95250208759123, -7.7663317323004284],
              [109.95248723434298, -7.7663317318731497],
              [109.95245999855469, -7.7663230673470398],
              [109.95235725339857, -7.7662785021240266],
              [109.95205767904878, -7.7661472831719571],
              [109.95209233957847, -7.7659913066448025],
              [109.95212947663831, -7.7658737052767775],
              [109.95204034841188, -7.7657598173062787],
              [109.95205396476787, -7.7656273607629753],
              [109.95206634395772, -7.7656026029707599],
              [109.95206100506384, -7.765347437902717],
              [109.95205713709248, -7.7652159095998323],
              [109.95207872287904, -7.7651520032182857],
              [109.95207624724662, -7.7650294501802648],
              [109.95212947704933, -7.7649180376071447],
              [109.9522186068245, -7.7647150208077766],
              [109.95227307514537, -7.7646395076415606],
              [109.95230402291348, -7.7645714232843117],
              [109.95240800694864, -7.7643671677947399],
              [109.95251570489883, -7.7641765302063046],
              [109.95261350042573, -7.7640094120176686],
              [109.95262587873835, -7.7639549440312416],
              [109.95266920591465, -7.7639549440369668],
              [109.95268653662879, -7.7639314229936875],
              [109.95270386844149, -7.7637964910970387],
              [109.952748432622, -7.7637209787688404],
              [109.9527546220345, -7.7636504176745094],
              [109.95278680763239, -7.7634511141493387],
              [109.9530158206846, -7.7634845383606512],
              [109.95305791015346, -7.76349072692613],
              [109.95318293898623, -7.7635092958777898],
              [109.95328399115772, -7.7632513356803745],
              [109.95272757488144, -7.7631686059312397],
              [109.95268589960506, -7.7632053692175065],
              [109.95268429380771, -7.7632067861047718],
              [109.95264346127601, -7.763225829370918],
              [109.95257624193586, -7.7632424154484019],
              [109.95234231290029, -7.7632300609149665]
            ]
          ],
          [
            [
              [109.95386532587925, -7.7572798181646112],
              [109.95374586362033, -7.7571779780467986],
              [109.95359197040942, -7.7570423717525605],
              [109.95357370574249, -7.7570631022616618],
              [109.95354313294186, -7.7571170552958897],
              [109.95354313344851, -7.7571458303084331],
              [109.95354493244041, -7.7571817980698494],
              [109.95356111702245, -7.757210573085608],
              [109.9535647141435, -7.7572465416510905],
              [109.95353953626635, -7.7572933024389839],
              [109.95351170538243, -7.7573289712304732],
              [109.95309356922282, -7.7573229801942176],
              [109.95294965269346, -7.7573750109813293],
              [109.95230522267678, -7.7573601208428267],
              [109.95210451754895, -7.7573539387579959],
              [109.95205084257123, -7.7573493378442908],
              [109.95199640191444, -7.7573562392488649],
              [109.95193659330987, -7.7573700408047408],
              [109.95184688019545, -7.7574007129844516],
              [109.95179167138356, -7.7574168149328866],
              [109.95173953042793, -7.757455154145501],
              [109.95167309628671, -7.757432230782352],
              [109.95165061627937, -7.7573957001837837],
              [109.9516506160256, -7.7573760299748837],
              [109.95165061581534, -7.7573394986830886],
              [109.95165061600261, -7.7572636269754662],
              [109.9516449959733, -7.7572046160713066],
              [109.95162251477592, -7.7571652754400944],
              [109.95155788413354, -7.7571175039799183],
              [109.95151649304442, -7.7570939422783427],
              [109.95146407303147, -7.7572259215949861],
              [109.95140619818466, -7.757344948841661],
              [109.95137301465464, -7.7573735832753767],
              [109.95134274581613, -7.7573907369599064],
              [109.95129954682322, -7.7573963735614218],
              [109.95122754731142, -7.7574062478292038],
              [109.95115843390349, -7.7574132549548569],
              [109.95106482376794, -7.7574302533963095],
              [109.95097408640304, -7.7574501304277712],
              [109.95082000334953, -7.7574727227894877],
              [109.95075954111616, -7.7574740099279911],
              [109.95072737955883, -7.7574791952468063],
              [109.95072478333545, -7.7575586347933436],
              [109.95072603375996, -7.7576347329534254],
              [109.95072589496493, -7.7576907278864011],
              [109.95071642861693, -7.7577352127966117],
              [109.95069476375494, -7.757765308169783],
              [109.9506726405728, -7.7577834921215469],
              [109.95064100081379, -7.7579066538022214],
              [109.95062380621469, -7.7579100934096212],
              [109.95059010328033, -7.7578928977856823],
              [109.95054500296689, -7.75787356856309],
              [109.95049101503376, -7.7578565716170269],
              [109.95026102581937, -7.7578243306515207],
              [109.95005575555567, -7.7577974631145095],
              [109.95001814135397, -7.7578082097565959],
              [109.94993861172166, -7.7578039110625463],
              [109.94986230773955, -7.7577867160719842],
              [109.94980642178471, -7.7577738186107252],
              [109.94972367027188, -7.7578393773441379],
              [109.94970330102834, -7.7582974493547638],
              [109.94968107965164, -7.7585510458716751],
              [109.94983701890017, -7.7585538238836884],
              [109.9498428571971, -7.7591018226944097],
              [109.94982117521862, -7.7591376637316616],
              [109.94977664144312, -7.7596807519932973],
              [109.94976166538899, -7.7599152225588481],
              [109.94974194913885, -7.7601257541247346],
              [109.94973696136222, -7.7602023161964668],
              [109.94973169444231, -7.7603913474225132],
              [109.94970529597877, -7.7603936744293165],
              [109.94968126895269, -7.76040797183955],
              [109.94966438642821, -7.7604438247067522],
              [109.94967379274239, -7.7605204214120587],
              [109.94967365018876, -7.7605778534303642],
              [109.9496663215551, -7.7606304788093841],
              [109.94964694465983, -7.7607046122538499],
              [109.9496351389481, -7.7607727020768458],
              [109.94964507958535, -7.7608272856562417],
              [109.94968231512544, -7.7609049088602537],
              [109.9497224358991, -7.7609796703720786],
              [109.94974335155341, -7.7610480354441744],
              [109.94973319707663, -7.7610795971791164],
              [109.94974029882746, -7.7611183807960664],
              [109.9497416327209, -7.7611600189855396],
              [109.94978203984164, -7.7612772490678301],
              [109.94977364421031, -7.7614115878134529],
              [109.94963090798905, -7.7617289637947415],
              [109.94937201863669, -7.7616032387858516],
              [109.94927612230352, -7.761574286610335],
              [109.94924014609525, -7.7615694133585542],
              [109.94918018438392, -7.7615620850399711],
              [109.94909618961246, -7.7615714498669641],
              [109.94901883625478, -7.7615829429045897],
              [109.94885858160654, -7.7616067563332081],
              [109.94877503041035, -7.761641236069754],
              [109.94843520131944, -7.7617814779430025],
              [109.9483280930399, -7.7618184154266228],
              [109.94815644601904, -7.7618759406131934],
              [109.94785493338244, -7.7619225356456125],
              [109.94779012540364, -7.7619343398522771],
              [109.94771683405348, -7.7619379326520725],
              [109.94752099825205, -7.7619817247283507],
              [109.94749009065607, -7.7619886357697734],
              [109.94720428419166, -7.7621099677472412],
              [109.94720792979813, -7.762196918429316],
              [109.94722013772342, -7.7624880933142482],
              [109.94717596328279, -7.7624992466651364],
              [109.94717261515287, -7.7625000921462721],
              [109.94684541390136, -7.762582713566581],
              [109.9468072161703, -7.7625923604477549],
              [109.94652154023854, -7.7626610478834461],
              [109.94624474059736, -7.7626617141833885],
              [109.94603210072665, -7.7626622273002903],
              [109.94602748688101, -7.7625880346635725],
              [109.94570277135281, -7.7625926273154189],
              [109.94559561588591, -7.7625941433439909],
              [109.94558104784907, -7.7626635022391719],
              [109.94559732455558, -7.7631295425765465],
              [109.94584023641937, -7.7631331357418532],
              [109.94583999698028, -7.7632288532281182],
              [109.94586383942301, -7.7632887359086231],
              [109.9458667188742, -7.7633366011824929],
              [109.94588163972031, -7.7633665499587066],
              [109.94589277081432, -7.7637135535573121],
              [109.94592864723613, -7.7637585106296756],
              [109.94594329139021, -7.7638991331455163],
              [109.9459461550294, -7.7639529810991892],
              [109.94594899156812, -7.7640187953282958],
              [109.94593075054755, -7.7641174554756374],
              [109.94593200620965, -7.7641233716675364],
              [109.94586531090061, -7.764162807121588],
              [109.94598363155019, -7.7643667028356669],
              [109.94604182340993, -7.7643151144355675],
              [109.94636441022755, -7.7640418963718547],
              [109.94676003303823, -7.7636989872608853],
              [109.94689620975272, -7.7636096153960814],
              [109.94703582512106, -7.763517984620532],
              [109.94706118942743, -7.7635013328920595],
              [109.94706028485274, -7.7632436250421986],
              [109.94708998771539, -7.7632435213257684],
              [109.94714467903256, -7.7632433302507513],
              [109.94714538675863, -7.7634460788839696],
              [109.94721022526473, -7.7634035255949199],
              [109.94727033622536, -7.7633640754038549],
              [109.94722443408099, -7.7632951482501227],
              [109.94733884580431, -7.7632189548581074],
              [109.94738526019492, -7.7632886511196277],
              [109.9477005077713, -7.7630817535821315],
              [109.94787179635757, -7.7629815311140549],
              [109.94787273993629, -7.7629831433121446],
              [109.9478519710418, -7.7629266056143003],
              [109.94783293265051, -7.7628567998683371],
              [109.94778216459841, -7.7628637232827487],
              [109.9477596660804, -7.7627858397591725],
              [109.94804696682034, -7.7626894956877361],
              [109.94804350461068, -7.7626341132422825],
              [109.94815715672242, -7.7626266127582744],
              [109.94816417785374, -7.7628104548466759],
              [109.9484709198793, -7.7626309756365695],
              [109.94847097430248, -7.7626313339206137],
              [109.94846382057143, -7.7623544911051221],
              [109.94854765273803, -7.7623445761375853],
              [109.94856368535822, -7.7625766975498163],
              [109.94882900941927, -7.7624214526140562],
              [109.94887483835451, -7.7623958433390818],
              [109.94887487807742, -7.762395913981865],
              [109.94885060305381, -7.7622971973540578],
              [109.94888579500633, -7.7622885431366502],
              [109.94885521803596, -7.7622014299912045],
              [109.94902309892441, -7.7621425847194132],
              [109.94908067896382, -7.7622808135588466],
              [109.94912525295813, -7.7622559047888133],
              [109.949270299107, -7.7621748501744188],
              [109.94957812368716, -7.7620151686180838],
              [109.95000503118594, -7.7617937160180697],
              [109.95082082373213, -7.7613705259425618],
              [109.95140409126532, -7.7612286166778226],
              [109.951751424386, -7.7611441110748594],
              [109.95226102561192, -7.7609941116603549],
              [109.95247754306837, -7.7609171579403631],
              [109.95280990194281, -7.7607990334488104],
              [109.95291352632476, -7.7607520145607278],
              [109.95291521189914, -7.7607557313508373],
              [109.95300301588988, -7.7602134976354309],
              [109.95318186531135, -7.7602424586604997],
              [109.95313048389022, -7.7605597589567967],
              [109.95308988625823, -7.7606719942412932],
              [109.95363741307168, -7.7604235607360872],
              [109.954097555677, -7.7601865261515703],
              [109.95408319623849, -7.7601229282402242],
              [109.95408319579853, -7.7601025607110152],
              [109.95409715358686, -7.7599636128766525],
              [109.95410595744953, -7.7598975910927388],
              [109.95410375575189, -7.7598425716466863],
              [109.95410815809453, -7.7597633462722406],
              [109.95415217305617, -7.7597083273965364],
              [109.95420499013501, -7.7596885211193536],
              [109.95425780813083, -7.7596797180061881],
              [109.95431282687916, -7.7596731153221663],
              [109.95436344411455, -7.7596599113063141],
              [109.95444927241164, -7.759626900209267],
              [109.9545042910993, -7.7595894866336996],
              [109.95456591112874, -7.7595586770650407],
              [109.95463853581631, -7.7595322683011734],
              [109.95468915303495, -7.7595212646960965],
              [109.95475297385529, -7.7595146618730002],
              [109.95485420837102, -7.7595256659502008],
              [109.95495544193165, -7.7595168632077849],
              [109.95506327768663, -7.7594904540366096],
              [109.95515350914789, -7.7594354364032965],
              [109.95520852684309, -7.7593958222688419],
              [109.95527454913966, -7.759345204844653],
              [109.95532076471197, -7.7593033912341429],
              [109.95538571613179, -7.7592747946892615],
              [109.95563331291885, -7.7590791823128225],
              [109.95576181862521, -7.759218850785226],
              [109.95583827168369, -7.7591541906085935],
              [109.95587856639899, -7.7591151272077905],
              [109.95588427279367, -7.7591095953083578],
              [109.95595253042315, -7.759058143945829],
              [109.95597627524118, -7.7590350047433745],
              [109.95599104405413, -7.7590206136750677],
              [109.95601866559146, -7.7589936962711734],
              [109.95620380731376, -7.7588302334217039],
              [109.95624199669399, -7.7587954752790571],
              [109.95646607026943, -7.7585917254316197],
              [109.95655236200388, -7.7585254431814619],
              [109.95665432981359, -7.7584471199127698],
              [109.95660333077271, -7.7583688258038386],
              [109.95656464564742, -7.7583185347046362],
              [109.9565569090425, -7.7582585743714327],
              [109.9565627117411, -7.7581966783178222],
              [109.95658011978588, -7.7581386508916639],
              [109.95660526466595, -7.7580786888881708],
              [109.9566226733703, -7.7580225960152838],
              [109.95663234400398, -7.757993583313505],
              [109.95663234380079, -7.7579877796476744],
              [109.95662654213335, -7.7579587660877056],
              [109.95660913418619, -7.7579336212152539],
              [109.95657625078385, -7.7579046072695359],
              [109.95651048676429, -7.757891067814163],
              [109.95643505155969, -7.7578736599400093],
              [109.95634220776779, -7.7578291717114771],
              [109.95627837826071, -7.7577904868490934],
              [109.95622421857425, -7.7577595385941338],
              [109.95615265203556, -7.7577692103655913],
              [109.95609462526615, -7.7578175657387778],
              [109.95607141393091, -7.7578523832367914],
              [109.95594375402602, -7.7578717248823121],
              [109.95592441189309, -7.7578620543925796],
              [109.95588766139312, -7.7578311063056375],
              [109.95586058227342, -7.7578098303022021],
              [109.95579868604679, -7.7578156322124885],
              [109.95574259308445, -7.7578369094170609],
              [109.95568843403248, -7.7578601195834134],
              [109.95563621016822, -7.7578601198374155],
              [109.95560719634132, -7.7578581864247536],
              [109.95558398539612, -7.757823368973793],
              [109.9555356290266, -7.7577711448334803],
              [109.95548533870715, -7.7577614734265046],
              [109.95536154736276, -7.7577788816994202],
              [109.95531899445048, -7.7577846839970803],
              [109.9552764403053, -7.7577711452661742],
              [109.95521454531449, -7.7577305259310867],
              [109.95515458317274, -7.7577150524000205],
              [109.95510429342946, -7.7577227892261567],
              [109.95507721330742, -7.7577537361912885],
              [109.95504239696297, -7.7578253033600832],
              [109.95504433109396, -7.7579200813671809],
              [109.95504626557882, -7.7579974511006107],
              [109.95502498922387, -7.7580612807398159],
              [109.95495728955495, -7.758132847630332],
              [109.95479568997611, -7.7581800593619317],
              [109.95465823109201, -7.7580519000307566],
              [109.95429602542059, -7.7576866736045389],
              [109.95404137496352, -7.757429898002953],
              [109.95386532587925, -7.7572798181646112]
            ]
          ],
          [
            [
              [109.95715466209172, -7.7549714663499518],
              [109.9571356699054, -7.7548900590468097],
              [109.95707851129929, -7.7548088729741975],
              [109.95704495365587, -7.7548084886787239],
              [109.95686744790973, -7.7547766278305872],
              [109.95673906557946, -7.7546843526340083],
              [109.95670028305331, -7.7546549317493145],
              [109.95669760944527, -7.7547151107629437],
              [109.95669359674802, -7.7547579062456728],
              [109.95668557318007, -7.7547632552204195],
              [109.95667720536761, -7.7550132201501896],
              [109.95664258187053, -7.7550012168319764],
              [109.95655864055198, -7.7549890455904222],
              [109.95616880907524, -7.754976127042478],
              [109.95573889994769, -7.7549935128122947],
              [109.95563592695083, -7.7550513917890402],
              [109.95551731559513, -7.7550729578804996],
              [109.95531119980595, -7.7550549741468551],
              [109.95516028256415, -7.7550418070889044],
              [109.95497772222595, -7.7550130542047189],
              [109.95489715680081, -7.7550148823063454],
              [109.95485398718975, -7.7550182664694036],
              [109.95483042407419, -7.7550681651543423],
              [109.95482428994029, -7.7550842677605845],
              [109.95480511958783, -7.7551141723643084],
              [109.9547874842408, -7.7553388394303848],
              [109.95471770722543, -7.7553587751445248],
              [109.95443859900224, -7.7552652283231733],
              [109.95422006597207, -7.7552391569817196],
              [109.95412393059938, -7.7552478790542656],
              [109.95403167763911, -7.7552622569373648],
              [109.9539142654113, -7.7553041903281743],
              [109.95383998318563, -7.7553437271621233],
              [109.95378726640929, -7.7553616986456175],
              [109.95275529288962, -7.7553757397696437],
              [109.952471834684, -7.7553939491464945],
              [109.95247852127409, -7.7554969147453994],
              [109.95247845706348, -7.7555232368061953],
              [109.95250235668885, -7.7555591884081361],
              [109.9525706379566, -7.7556164650974271],
              [109.95259872201161, -7.7557060662933957],
              [109.95260005888822, -7.7558023531582982],
              [109.95257316657226, -7.7558237190029544],
              [109.9529067106495, -7.7561677053608342],
              [109.95297977284827, -7.7562688671500837],
              [109.95304721426679, -7.7563306882347227],
              [109.95312870640829, -7.7563868903475974],
              [109.95322424772381, -7.7564065604202286],
              [109.95332260028795, -7.756395319806427],
              [109.95341252164464, -7.7563587889546275],
              [109.95349682280556, -7.7563138277339112],
              [109.95357269522955, -7.7562744866349203],
              [109.95359517495625, -7.7562660566416257],
              [109.95362327640102, -7.7561564648596288],
              [109.95362889638888, -7.756089023446795],
              [109.95365699681892, -7.756060922575057],
              [109.95375253940912, -7.7560103417322024],
              [109.95385089086822, -7.7559653805972699],
              [109.95391552222912, -7.7559119896711302],
              [109.9539520527787, -7.7558585993103835],
              [109.95402511444262, -7.755830497664661],
              [109.95415437672131, -7.755867029182129],
              [109.95432297976234, -7.7558838894163511],
              [109.95447753293766, -7.7558810792134798],
              [109.95468828768828, -7.7558136378625564],
              [109.95476696856174, -7.7557855372205804],
              [109.95487375107986, -7.755749006733434],
              [109.95502830370609, -7.7557096658944653],
              [109.95525591928941, -7.755718095829077],
              [109.95530369041771, -7.7556843751133666],
              [109.95541285025847, -7.7557034160783278],
              [109.95557064479088, -7.7557040456981827],
              [109.9556661865972, -7.7557040458890505],
              [109.9557336287067, -7.7556506552164439],
              [109.95580668979539, -7.7556028839121858],
              [109.95591066238684, -7.7555607334211851],
              [109.95599215440193, -7.7555270121283995],
              [109.95614951726756, -7.7555213918263446],
              [109.95629844997578, -7.7555242016978516],
              [109.95641647321324, -7.7555466819443595],
              [109.95648672395617, -7.7555747826831487],
              [109.95654573495845, -7.7556618946128451],
              [109.95658507599273, -7.7557461971213435],
              [109.95666656785464, -7.7558192579053964],
              [109.95674805882095, -7.7558304979188062],
              [109.95682674077591, -7.7558276880955486],
              [109.95686608217993, -7.7558529789592434],
              [109.95687451181601, -7.7559400898862769],
              [109.95695881437669, -7.7559485212927921],
              [109.95705435603806, -7.755954141247992],
              [109.95717799786641, -7.7559541412275728],
              [109.95728759024111, -7.7559850505983086],
              [109.95735095754054, -7.7560257890002609],
              [109.9573465948489, -7.7559665921226042],
              [109.95734577267254, -7.7559554376977307],
              [109.95732540980335, -7.7557807016829186],
              [109.9572169398029, -7.755788555831522],
              [109.95720295666509, -7.7550973696761387],
              [109.95715466209172, -7.7549714663499518]
            ]
          ]
        ]
      },
      "properties": {
        "OBJECTID": 1,
        "Nama": "Area Persawahan",
        "Shape_Length": 9384.0540667591758,
        "Shape_Area": 725888.82191681606
      }
    },
    {
      "type": "Feature",
      "id": 2,
      "geometry": {
        "type": "Polygon",
        "coordinates": [
          [
            [109.95359197221849, -7.7570423735658638],
            [109.95374586362033, -7.7571779780467986],
            [109.95386532587925, -7.7572798181646112],
            [109.95404137496352, -7.757429898002953],
            [109.95429602542059, -7.7576866736045389],
            [109.95465823109201, -7.7580519000307566],
            [109.95479568997611, -7.7581800593619317],
            [109.95495728955495, -7.758132847630332],
            [109.95502498922387, -7.7580612807398159],
            [109.95504626557882, -7.7579974511006107],
            [109.95504433109396, -7.7579200813671809],
            [109.95504239696297, -7.7578253033600832],
            [109.95507721330742, -7.7577537361912885],
            [109.95510429342946, -7.7577227892261567],
            [109.95515458317274, -7.7577150524000205],
            [109.95521454531449, -7.7577305259310867],
            [109.9552764403053, -7.7577711452661742],
            [109.95531899445048, -7.7577846839970803],
            [109.95536154736276, -7.7577788816994202],
            [109.95548533870715, -7.7577614734265046],
            [109.9555356290266, -7.7577711448334803],
            [109.95558398539612, -7.757823368973793],
            [109.95560719634132, -7.7578581864247536],
            [109.95563621016822, -7.7578601198374155],
            [109.95568843403248, -7.7578601195834134],
            [109.95574259308445, -7.7578369094170609],
            [109.95579868604679, -7.7578156322124885],
            [109.95586058227342, -7.7578098303022021],
            [109.95588766139312, -7.7578311063056375],
            [109.95592441189309, -7.7578620543925796],
            [109.95594375402602, -7.7578717248823121],
            [109.95607141393091, -7.7578523832367914],
            [109.95609462526615, -7.7578175657387778],
            [109.95615265203556, -7.7577692103655913],
            [109.95622421857425, -7.7577595385941338],
            [109.95627837826071, -7.7577904868490934],
            [109.95634220776779, -7.7578291717114771],
            [109.95643505155969, -7.7578736599400093],
            [109.95651048676429, -7.757891067814163],
            [109.95657625078385, -7.7579046072695359],
            [109.95660913418619, -7.7579336212152539],
            [109.95662654213335, -7.7579587660877056],
            [109.95663234380079, -7.7579877796476744],
            [109.95663234400398, -7.757993583313505],
            [109.9566226733703, -7.7580225960152838],
            [109.95660526466595, -7.7580786888881708],
            [109.95658011978588, -7.7581386508916639],
            [109.9565627117411, -7.7581966783178222],
            [109.9565569090425, -7.7582585743714327],
            [109.95656464564742, -7.7583185347046362],
            [109.95660333077271, -7.7583688258038386],
            [109.95665432981359, -7.7584471199127698],
            [109.95671469210667, -7.7584007553969103],
            [109.95669132245258, -7.7583622186258578],
            [109.95722502759271, -7.757872135405413],
            [109.95726692067245, -7.7578945591668322],
            [109.95735074811631, -7.7579292781744229],
            [109.95745597899928, -7.7579669826448496],
            [109.95751914439371, -7.7576347257526752],
            [109.95758837077702, -7.7574445129923042],
            [109.95768584741757, -7.7571766751496449],
            [109.95769097505652, -7.7570426824110079],
            [109.95775002755671, -7.7564445898284902],
            [109.95734947431099, -7.7564005347618883],
            [109.95735970205564, -7.7561445147246904],
            [109.95735095754054, -7.7560257890002609],
            [109.95728759024111, -7.7559850505983086],
            [109.95717799786641, -7.7559541412275728],
            [109.95705435603806, -7.755954141247992],
            [109.95695881437669, -7.7559485212927921],
            [109.95687451181601, -7.7559400898862769],
            [109.95686608217993, -7.7558529789592434],
            [109.95682674077591, -7.7558276880955486],
            [109.95674805882095, -7.7558304979188062],
            [109.95666656785464, -7.7558192579053964],
            [109.95658507599273, -7.7557461971213435],
            [109.95654573495845, -7.7556618946128451],
            [109.95648672395617, -7.7555747826831487],
            [109.95641647321324, -7.7555466819443595],
            [109.95629844997578, -7.7555242016978516],
            [109.95614951726756, -7.7555213918263446],
            [109.95599215440193, -7.7555270121283995],
            [109.95591066238684, -7.7555607334211851],
            [109.95580668979539, -7.7556028839121858],
            [109.9557336287067, -7.7556506552164439],
            [109.9556661865972, -7.7557040458890505],
            [109.95557064479088, -7.7557040456981827],
            [109.95541285026516, -7.7557034133650706],
            [109.95542057382904, -7.7558799633654134],
            [109.95538614057732, -7.7563550023738577],
            [109.95535336240539, -7.7566884087221819],
            [109.95530056167794, -7.7570677565651414],
            [109.9551132392421, -7.7570502962808288],
            [109.95480365597986, -7.7570074162943126],
            [109.95437027035932, -7.7569663437373766],
            [109.9542017943488, -7.7569503773449195],
            [109.95365697088391, -7.7569307082410202],
            [109.95348352182376, -7.7569468136239523],
            [109.95359197221849, -7.7570423735658638]
          ]
        ]
      },
      "properties": {
        "OBJECTID": 2,
        "Nama": "RT 2 Dusun Tegaliser",
        "Shape_Length": 1493.0430665120718,
        "Shape_Area": 74361.580367159055
      }
    },
    {
      "type": "Feature",
      "id": 3,
      "geometry": {
        "type": "Polygon",
        "coordinates": [
          [
            [109.95469202462671, -7.7625370609714945],
            [109.95469604942707, -7.7624968603684312],
            [109.95455411858021, -7.7624734107917366],
            [109.95456152409902, -7.7623586328281338],
            [109.95455905640105, -7.762319139802706],
            [109.95455288498849, -7.7622845830387872],
            [109.95455165093026, -7.7622537293486094],
            [109.95462940341312, -7.7620451542040305],
            [109.95470715629537, -7.7618279400177279],
            [109.9546972827975, -7.7617785733280655],
            [109.95469481384859, -7.7617403139265111],
            [109.95471332676944, -7.7616958836859657],
            [109.95473183928689, -7.7616699669134981],
            [109.9547466493346, -7.7616477509700745],
            [109.95476516200661, -7.761614428807655],
            [109.95490118179372, -7.7614192419938011],
            [109.95495840469758, -7.7613206760368403],
            [109.95502483884171, -7.7611353852773775],
            [109.9550820422362, -7.7610457910900479],
            [109.95511817069388, -7.7609890461038535],
            [109.9552432392112, -7.7608146682498518],
            [109.95531726560115, -7.7603726339728141],
            [109.95540852891172, -7.7599459574272043],
            [109.95541888133177, -7.7596396829502936],
            [109.95543254941609, -7.7595459127880133],
            [109.95545559132792, -7.7594989775120178],
            [109.95546237184742, -7.7594851646746816],
            [109.95546508405197, -7.7594796408058704],
            [109.95549425302045, -7.7594202269127797],
            [109.95538571613179, -7.7592747946892615],
            [109.95532076471197, -7.7593033912341429],
            [109.95527454913966, -7.759345204844653],
            [109.95520852684309, -7.7593958222688419],
            [109.95515350914789, -7.7594354364032965],
            [109.95506327768663, -7.7594904540366096],
            [109.95495544193165, -7.7595168632077849],
            [109.95485420837102, -7.7595256659502008],
            [109.95475297385529, -7.7595146618730002],
            [109.95468915303495, -7.7595212646960965],
            [109.95463853581631, -7.7595322683011734],
            [109.95456591112874, -7.7595586770650407],
            [109.9545042910993, -7.7595894866336996],
            [109.95444927241164, -7.759626900209267],
            [109.95436344411455, -7.7596599113063141],
            [109.95431282687916, -7.7596731153221663],
            [109.95425780813083, -7.7596797180061881],
            [109.95420499013501, -7.7596885211193536],
            [109.95415217305617, -7.7597083273965364],
            [109.95410815809453, -7.7597633462722406],
            [109.95410375575189, -7.7598425716466863],
            [109.95410595744953, -7.7598975910927388],
            [109.95409715358686, -7.7599636128766525],
            [109.95408319579853, -7.7601025607110152],
            [109.95408319623849, -7.7601229282402242],
            [109.95409755477691, -7.7601865234361034],
            [109.95409996941456, -7.7601972096633958],
            [109.95410236463057, -7.7602583127104126],
            [109.95383758622377, -7.7603877071827849],
            [109.95357715063874, -7.7605448081866459],
            [109.95349290865087, -7.7606047122677007],
            [109.95348729338301, -7.76064964085929],
            [109.95348167742155, -7.7607788106847693],
            [109.9534535965565, -7.7608611803225083],
            [109.95335438030081, -7.7609135960103588],
            [109.95324767385169, -7.7609866049540459],
            [109.95317092140438, -7.761087693834952],
            [109.95302115986776, -7.7611981437056423],
            [109.95287044675057, -7.7613024827230834],
            [109.95287177860418, -7.7613135588057593],
            [109.95288967293463, -7.761462355392263],
            [109.9528442837715, -7.7620504724198147],
            [109.95281175294481, -7.7623589303747806],
            [109.95367195024264, -7.7624535887491586],
            [109.95412647476375, -7.7624722860241526],
            [109.95469202462671, -7.7625370609714945]
          ]
        ]
      },
      "properties": {
        "OBJECTID": 3,
        "Nama": "RT 2 Dusun Karangwaru",
        "Shape_Length": 1126.3956463266711,
        "Shape_Area": 59739.819670261037
      }
    },
    {
      "type": "Feature",
      "id": 4,
      "geometry": {
        "type": "Polygon",
        "coordinates": [
          [
            [109.95060686980524, -7.7631051276847343],
            [109.9508716675696, -7.7630987474130517],
            [109.95089404109081, -7.7630982084093647],
            [109.95091756539296, -7.763097640588926],
            [109.95155220419072, -7.7631494770350171],
            [109.95189737162464, -7.7631846813877274],
            [109.95202575031567, -7.7619259526738222],
            [109.95155364260727, -7.7618541340796794],
            [109.95135210043699, -7.7618369081559173],
            [109.95137371469326, -7.7615840154303752],
            [109.95140409126532, -7.7612286166778226],
            [109.95082082373213, -7.7613705259425618],
            [109.95000503118594, -7.7617937160180697],
            [109.94957812368716, -7.7620151686180838],
            [109.949270299107, -7.7621748501744188],
            [109.94912525295813, -7.7622559047888133],
            [109.94908067896382, -7.7622808135588466],
            [109.94902309892441, -7.7621425847194132],
            [109.94885521803596, -7.7622014299912045],
            [109.94888579500633, -7.7622885431366502],
            [109.94885060305381, -7.7622971973540578],
            [109.94887487807742, -7.762395913981865],
            [109.94887483835451, -7.7623958433390818],
            [109.94882900941927, -7.7624214526140562],
            [109.94856368535822, -7.7625766975498163],
            [109.94854765273803, -7.7623445761375853],
            [109.94846382057143, -7.7623544911051221],
            [109.94847097430248, -7.7626313339206137],
            [109.9484709198793, -7.7626309756365695],
            [109.94816418148535, -7.7628104530468267],
            [109.94792278371925, -7.762951696619619],
            [109.94804218859556, -7.7632183846451506],
            [109.9480682191767, -7.7632214878847128],
            [109.94813544744478, -7.7639740293545501],
            [109.94844501892537, -7.7637196678720928],
            [109.94861541687199, -7.7636130070778098],
            [109.94873771119887, -7.7635842324173687],
            [109.94884921367505, -7.7635752396027744],
            [109.94897150701723, -7.7635698449779955],
            [109.9490776145681, -7.7635482637391826],
            [109.94915314966316, -7.7635212871308283],
            [109.94917184058433, -7.7635058469727154],
            [109.9491945141135, -7.7634871173386646],
            [109.94917055760371, -7.7631477159660385],
            [109.94917240935459, -7.7631359956665795],
            [109.94923569859955, -7.7631340673789495],
            [109.94960345366265, -7.7631228585686021],
            [109.94968255567706, -7.7631215544326766],
            [109.9504524415529, -7.7631088489972306],
            [109.95060686980524, -7.7631051276847343]
          ]
        ]
      },
      "properties": {
        "OBJECTID": 4,
        "Nama": "RT 2 Dusun Kliwonan",
        "Shape_Length": 1393.8764625734045,
        "Shape_Area": 64137.464211520528
      }
    },
    {
      "type": "Feature",
      "id": 5,
      "geometry": {
        "type": "Polygon",
        "coordinates": [
          [
            [109.94816418148535, -7.7628104530468267],
            [109.94815715672242, -7.7626266127582744],
            [109.94804350461068, -7.7626341132422825],
            [109.94804696682034, -7.7626894956877361],
            [109.9477596660804, -7.7627858397591725],
            [109.94778216459841, -7.7628637232827487],
            [109.94783293265051, -7.7628567998683371],
            [109.9478519710418, -7.7629266056143003],
            [109.94787273993629, -7.7629831433121446],
            [109.94787179635757, -7.7629815311140549],
            [109.9477005077713, -7.7630817535821315],
            [109.94738526019492, -7.7632886511196277],
            [109.94733884580431, -7.7632189548581074],
            [109.94722443408099, -7.7632951482501227],
            [109.94727033622536, -7.7633640754038549],
            [109.94721022526473, -7.7634035255949199],
            [109.94714538675863, -7.7634460788839696],
            [109.94714467903256, -7.7632433302507513],
            [109.94708998771539, -7.7632435213257684],
            [109.94706028485274, -7.7632436250421986],
            [109.94706118942743, -7.7635013328920595],
            [109.94703582512106, -7.763517984620532],
            [109.94689620975272, -7.7636096153960814],
            [109.94676003303823, -7.7636989872608853],
            [109.94636441022755, -7.7640418963718547],
            [109.94604182340993, -7.7643151144355675],
            [109.94598363155019, -7.7643667028356669],
            [109.9460196110123, -7.7644649420878684],
            [109.94603177057859, -7.7646041158985817],
            [109.94609203775477, -7.7648776181363006],
            [109.94612619793529, -7.7650567683617675],
            [109.94635743303056, -7.7650262738890499],
            [109.94646747006621, -7.7650090795827476],
            [109.94659469985737, -7.7650606599407945],
            [109.94666691186623, -7.7650916080460259],
            [109.94676663310285, -7.7651225555591452],
            [109.94693856477109, -7.7651363107846869],
            [109.94703140863065, -7.765115678561135],
            [109.94714488538915, -7.7650572222240566],
            [109.94722397431376, -7.7649884481181841],
            [109.94733057219408, -7.7649059208020521],
            [109.94751282068025, -7.7648302698151976],
            [109.94765036701597, -7.7647958842914111],
            [109.94782573838701, -7.7647752517531323],
            [109.94801142511545, -7.764740864957707],
            [109.94816616474387, -7.7646927240044281],
            [109.94847908180809, -7.7646583379177088],
            [109.94859943486001, -7.7646445827268531],
            [109.94870603297299, -7.764613634872843],
            [109.94877136838775, -7.764593002955416],
            [109.94895017755341, -7.7645620554087076],
            [109.94902582828209, -7.7645276692387162],
            [109.94917860277801, -7.7644729497231451],
            [109.94917685129808, -7.7641187499826554],
            [109.94917658660948, -7.7640654248428422],
            [109.94917651074221, -7.7640499735781008],
            [109.94928281944749, -7.7640847154333841],
            [109.94933915804867, -7.7641044344022552],
            [109.94938141221313, -7.7641016166402261],
            [109.94941803264669, -7.7640903494460636],
            [109.94948423089109, -7.7640720393677514],
            [109.94954197763022, -7.7640410528753661],
            [109.94960958488184, -7.7640213335557453],
            [109.94966310701928, -7.7640213337311801],
            [109.94970676915354, -7.7640157003421617],
            [109.94973353035108, -7.7639973895746905],
            [109.94975888304636, -7.7639762625855662],
            [109.94977719311986, -7.7639495017622044],
            [109.94978423506585, -7.763869218578713],
            [109.94977860196153, -7.763798794804794],
            [109.9497560661232, -7.7637452726513638],
            [109.94974479762074, -7.7637171038461128],
            [109.94973916388172, -7.7636790754255687],
            [109.94973916399786, -7.7636311873875545],
            [109.94975184122916, -7.7635861162698792],
            [109.94977860187437, -7.7635621718730796],
            [109.949827897552, -7.7635438615830585],
            [109.94989973020702, -7.7635325935758193],
            [109.94998705604723, -7.7635100585870189],
            [109.95002226676233, -7.7635030160058731],
            [109.95009691640766, -7.7634973822103435],
            [109.95017156463346, -7.7634959738402571],
            [109.95020677704237, -7.7634973821322211],
            [109.95037155730481, -7.763522522052706],
            [109.95051584355888, -7.7635289350895347],
            [109.9505479077597, -7.7635332098251473],
            [109.9505607341128, -7.763517178106067],
            [109.95057142234732, -7.7634883209784151],
            [109.95057142231872, -7.7634455691194946],
            [109.95057676611059, -7.7634049549278723],
            [109.95060686980524, -7.7631051276847343],
            [109.9504524415529, -7.7631088489972306],
            [109.94968255567706, -7.7631215544326766],
            [109.94960345366265, -7.7631228585686021],
            [109.94923569859955, -7.7631340673789495],
            [109.94917240935459, -7.7631359956665795],
            [109.94917055760371, -7.7631477159660385],
            [109.9491945141135, -7.7634871173386646],
            [109.94917184058433, -7.7635058469727154],
            [109.94915314966316, -7.7635212871308283],
            [109.9490776145681, -7.7635482637391826],
            [109.94897150701723, -7.7635698449779955],
            [109.94884921367505, -7.7635752396027744],
            [109.94873771119887, -7.7635842324173687],
            [109.94861541687199, -7.7636130070778098],
            [109.94844501892537, -7.7637196678720928],
            [109.94813544744478, -7.7639740293545501],
            [109.9480682191767, -7.7632214878847128],
            [109.94804218859556, -7.7632183846451506],
            [109.94792278371925, -7.762951696619619],
            [109.94816418148535, -7.7628104530468267]
          ]
        ]
      },
      "properties": {
        "OBJECTID": 5,
        "Nama": "RT 1 Dusun Kliwonan",
        "Shape_Length": 1638.3310009742065,
        "Shape_Area": 59755.43942805488
      }
    },
    {
      "type": "Feature",
      "id": 6,
      "geometry": {
        "type": "Polygon",
        "coordinates": [
          [
            [109.95469202462671, -7.7625370609714945],
            [109.95412647476375, -7.7624722860241526],
            [109.95367195024264, -7.7624535887491586],
            [109.95281175294481, -7.7623589303747806],
            [109.9528442837715, -7.7620504724198147],
            [109.95288967293463, -7.761462355392263],
            [109.95287177860418, -7.7613135588057593],
            [109.95287044675057, -7.7613024827230834],
            [109.95302115986776, -7.7611981437056423],
            [109.95317092140438, -7.761087693834952],
            [109.95324767385169, -7.7609866049540459],
            [109.95335438030081, -7.7609135960103588],
            [109.9534535965565, -7.7608611803225083],
            [109.95348167742155, -7.7607788106847693],
            [109.95348729338301, -7.76064964085929],
            [109.95349290865087, -7.7606047122677007],
            [109.95357715063874, -7.7605448081866459],
            [109.95383758622377, -7.7603877071827849],
            [109.95410236463057, -7.7602583127104126],
            [109.95409996941456, -7.7601972096633958],
            [109.95409755477691, -7.7601865234361034],
            [109.95363741307168, -7.7604235607360872],
            [109.95308988625823, -7.7606719942412932],
            [109.95313048389022, -7.7605597589567967],
            [109.95318186531135, -7.7602424586604997],
            [109.95300301588988, -7.7602134976354309],
            [109.95291521189914, -7.7607557313508373],
            [109.95291352632476, -7.7607520145607278],
            [109.95280990194281, -7.7607990334488104],
            [109.95247754306837, -7.7609171579403631],
            [109.95226102561192, -7.7609941116603549],
            [109.951751424386, -7.7611441110748594],
            [109.95140409126532, -7.7612286166778226],
            [109.95137371469326, -7.7615840154303752],
            [109.95135210043699, -7.7618369081559173],
            [109.95155364260727, -7.7618541340796794],
            [109.95202575031567, -7.7619259526738222],
            [109.95189737162464, -7.7631846813877274],
            [109.95234231290029, -7.7632300609149665],
            [109.95257624193586, -7.7632424154484019],
            [109.95264346127601, -7.763225829370918],
            [109.95268429380771, -7.7632067861047718],
            [109.95268589960506, -7.7632053692175065],
            [109.95272757488144, -7.7631686059312397],
            [109.95328399115772, -7.7632513356803745],
            [109.9533132742469, -7.7630504005936674],
            [109.95338086562026, -7.7628830612834934],
            [109.95339553307221, -7.7627730214218822],
            [109.9534677927973, -7.7626583371073758],
            [109.95350631059503, -7.7626057865543281],
            [109.95356870244905, -7.762601154804063],
            [109.95359747992069, -7.7626060127071552],
            [109.95365024985264, -7.7626109278339301],
            [109.95370297243899, -7.7626349866818689],
            [109.95376047093588, -7.7626686305528647],
            [109.95382276630714, -7.7627022844093618],
            [109.95390906689529, -7.7627312111226576],
            [109.95409128459387, -7.7627795166824916],
            [109.95418532882324, -7.7628691019057046],
            [109.95432995772552, -7.7630046918011946],
            [109.95456498073004, -7.7630378360050551],
            [109.95463729462411, -7.7630016787253187],
            [109.95469202462671, -7.7625370609714945]
          ]
        ]
      },
      "properties": {
        "OBJECTID": 6,
        "Nama": "RT 1 Dusun Karangwaru",
        "Shape_Length": 1656.513418478007,
        "Shape_Area": 45228.876450159172
      }
    },
    {
      "type": "Feature",
      "id": 7,
      "geometry": {
        "type": "Polygon",
        "coordinates": [
          [
            [109.95541285026516, -7.7557034133650706],
            [109.95530369041771, -7.7556843751133666],
            [109.95525591928941, -7.755718095829077],
            [109.95502830370609, -7.7557096658944653],
            [109.95487375107986, -7.755749006733434],
            [109.95476696856174, -7.7557855372205804],
            [109.95468828768828, -7.7558136378625564],
            [109.95447753293766, -7.7558810792134798],
            [109.95432297976234, -7.7558838894163511],
            [109.95415437672131, -7.755867029182129],
            [109.95402511444262, -7.755830497664661],
            [109.9539520527787, -7.7558585993103835],
            [109.95391552222912, -7.7559119896711302],
            [109.95385089086822, -7.7559653805972699],
            [109.95375253940912, -7.7560103417322024],
            [109.95365699681892, -7.756060922575057],
            [109.95362889638888, -7.756089023446795],
            [109.95362327640102, -7.7561564648596288],
            [109.95359517495625, -7.7562660566416257],
            [109.95357269522955, -7.7562744866349203],
            [109.95349682280556, -7.7563138277339112],
            [109.95341252164464, -7.7563587889546275],
            [109.95332260028795, -7.756395319806427],
            [109.95322424772381, -7.7564065604202286],
            [109.95312870640829, -7.7563868903475974],
            [109.95304721426679, -7.7563306882347227],
            [109.95297977284827, -7.7562688671500837],
            [109.9529067106495, -7.7561677053608342],
            [109.95257316657226, -7.7558237190029544],
            [109.95234146400385, -7.7560078329483275],
            [109.95237515856873, -7.7560624731690604],
            [109.95242112892521, -7.7560999153216779],
            [109.95247718862716, -7.7561330772673518],
            [109.95250948144177, -7.7561719210614388],
            [109.95249284313111, -7.7562049022669042],
            [109.95246691283234, -7.756213453942963],
            [109.95240642588688, -7.7562247911855939],
            [109.95229841759469, -7.7562431898129818],
            [109.95221056304391, -7.7562616389337098],
            [109.95212989035794, -7.7562858487796369],
            [109.95205923859024, -7.7563330546251992],
            [109.95197847968319, -7.756391722595132],
            [109.95191065354652, -7.7564604723011499],
            [109.95184272075007, -7.7565722955928535],
            [109.95179208222149, -7.7566755450651224],
            [109.95175246260875, -7.7567484539914986],
            [109.95170682925287, -7.7568059910637484],
            [109.95166499469855, -7.7568417816882622],
            [109.95162461785492, -7.7568703984296326],
            [109.95158707732305, -7.7569162504310452],
            [109.95151649304442, -7.7570939422783427],
            [109.95155788413354, -7.7571175039799183],
            [109.95162251477592, -7.7571652754400944],
            [109.9516449959733, -7.7572046160713066],
            [109.95165061600261, -7.7572636269754662],
            [109.95165061581534, -7.7573394986830886],
            [109.9516506160256, -7.7573760299748837],
            [109.95165061627937, -7.7573957001837837],
            [109.95167309628671, -7.757432230782352],
            [109.95173953042793, -7.757455154145501],
            [109.95179167138356, -7.7574168149328866],
            [109.95184688019545, -7.7574007129844516],
            [109.95193659330987, -7.7573700408047408],
            [109.95199640191444, -7.7573562392488649],
            [109.95205084257123, -7.7573493378442908],
            [109.95210451754895, -7.7573539387579959],
            [109.95230522267678, -7.7573601208428267],
            [109.95294965269346, -7.7573750109813293],
            [109.95309356922282, -7.7573229801942176],
            [109.95351170538243, -7.7573289712304732],
            [109.95353953626635, -7.7572933024389839],
            [109.9535647141435, -7.7572465416510905],
            [109.95356111702245, -7.757210573085608],
            [109.95354493244041, -7.7571817980698494],
            [109.95354313344851, -7.7571458303084331],
            [109.95354313294186, -7.7571170552958897],
            [109.95357370574249, -7.7570631022616618],
            [109.95359197221849, -7.7570423735658638],
            [109.95348352182376, -7.7569468136239523],
            [109.95365697088391, -7.7569307082410202],
            [109.9542017943488, -7.7569503773449195],
            [109.95437027035932, -7.7569663437373766],
            [109.95480365597986, -7.7570074162943126],
            [109.9551132392421, -7.7570502962808288],
            [109.95530056167794, -7.7570677565651414],
            [109.95535336240539, -7.7566884087221819],
            [109.95538614057732, -7.7563550023738577],
            [109.95542057382904, -7.7558799633654134],
            [109.95541285026516, -7.7557034133650706]
          ]
        ]
      },
      "properties": {
        "OBJECTID": 7,
        "Nama": "RT 1 Dusun Tegaliser",
        "Shape_Length": 1249.0515325645583,
        "Shape_Area": 50589.446727674222
      }
    }
  ]
}
