{
  "type": "FeatureCollection",
  "features": [
    {
      "type": "Feature",
      "id": 1,
      "geometry": {
        "type": "MultiPolygon",
        "coordinates": [
          [
            [
              [109.95189737162464, -7.7631846813877274],
              [109.95155220419072, -7.7631494770350171],
              [109.95091756539296, -7.763097640588926],
              [109.95089404109081, -7.7630982084093647],
              [109.9508716675696, -7.7630987474130517],
              [109.95060686708491, -7.7631051276780223],
              [109.95057676611059, -7.7634049549278723],
              [109.95057142231872, -7.7634455691194946],
              [109.95057142234732, -7.7634883209784151],
              [109.9505607341128, -7.763517178106067],
              [109.9505479077597, -7.7635332098251473],
              [109.95051584355888, -7.7635289350895347],
              [109.95037155730481, -7.763522522052706],
              [109.95020677704237, -7.7634973821322211],
              [109.95017156463346, -7.7634959738402571],
              [109.95009691640766, -7.7634973822103435],
              [109.95002226676233, -7.7635030160058731],
              [109.94998705604723, -7.7635100585870189],
              [109.94989973020702, -7.7635325935758193],
              [109.949827897552, -7.7635438615830585],
              [109.94977860187437, -7.7635621718730796],
              [109.94975184122916, -7.7635861162698792],
              [109.94973916399786, -7.7636311873875545],
              [109.94973916388172, -7.7636790754255687],
              [109.94974479762074, -7.7637171038461128],
              [109.9497560661232, -7.7637452726513638],
              [109.94977860196153, -7.763798794804794],
              [109.94978423506585, -7.763869218578713],
              [109.94977719311986, -7.7639495017622044],
              [109.94975888304636, -7.7639762625855662],
              [109.94973353035108, -7.7639973895746905],
              [109.94970676915354, -7.7640157003421617],
              [109.94966310701928, -7.7640213337311801],
              [109.94960958488184, -7.7640213335557453],
              [109.94954197763022, -7.7640410528753661],
              [109.94948423089109, -7.7640720393677514],
              [109.94941803264669, -7.7640903494460636],
              [109.94938141221313, -7.7641016166402261],
              [109.94933915804867, -7.7641044344022552],
              [109.94928281944749, -7.7640847154333841],
              [109.94917651074221, -7.7640499735781008],
              [109.94917658660948, -7.7640654248428422],
              [109.94917685129808, -7.7641187499826554],
              [109.94917860277801, -7.7644729497231451],
              [109.94902582828209, -7.7645276692387162],
              [109.94895017755341, -7.7645620554087076],
              [109.94877136838775, -7.764593002955416],
              [109.94870603297299, -7.764613634872843],
              [109.94859943486001, -7.7646445827268531],
              [109.94847908180809, -7.7646583379177088],
              [109.94816616474387, -7.7646927240044281],
              [109.94801142511545, -7.764740864957707],
              [109.94782573838701, -7.7647752517531323],
              [109.94765036701597, -7.7647958842914111],
              [109.94751282068025, -7.7648302698151976],
              [109.94733057219408, -7.7649059208020521],
              [109.94722397431376, -7.7649884481181841],
              [109.94714488538915, -7.7650572222240566],
              [109.94703140863065, -7.765115678561135],
              [109.94693856477109, -7.7651363107846869],
              [109.94676663310285, -7.7651225555591452],
              [109.94666691186623, -7.7650916080460259],
              [109.94659469985737, -7.7650606599407945],
              [109.94646747006621, -7.7650090795827476],
              [109.94635743303056, -7.7650262738890499],
              [109.94612619885108, -7.7650567647463751],
              [109.94620123078799, -7.7652759047010056],
              [109.94623689626494, -7.7654052117063754],
              [109.94624387964491, -7.7654913747480334],
              [109.94623086637488, -7.7655604960319042],
              [109.94622564395074, -7.7655882441694724],
              [109.9461895670148, -7.7656240483384114],
              [109.94616398118863, -7.7657819187452537],
              [109.94613145761508, -7.7658356798721835],
              [109.94608752058959, -7.7661370809784476],
              [109.9463381890091, -7.7661574440277406],
              [109.94632603572661, -7.7662202301927969],
              [109.94660176594071, -7.7662927017147867],
              [109.94649592824244, -7.7666424072466418],
              [109.94644434798489, -7.7668815727940661],
              [109.94708889776346, -7.7669788872039165],
              [109.94737975200496, -7.7657951012047359],
              [109.94778149204268, -7.7658469457950998],
              [109.94777195902458, -7.766062288431999],
              [109.94773825562918, -7.7663493566575399],
              [109.94770767563313, -7.766585585347701],
              [109.94765306934414, -7.7668367090847976],
              [109.94752923056429, -7.7671893612986027],
              [109.94734528639232, -7.7675927136309006],
              [109.94724568557602, -7.7678467176188972],
              [109.94706165700981, -7.7682829731376852],
              [109.94698460218972, -7.7684758915611427],
              [109.94734115769005, -7.7686083875758953],
              [109.94738319599772, -7.7685875553552464],
              [109.94766040234028, -7.7680677750417022],
              [109.94792099705506, -7.7681970410996781],
              [109.94788776059113, -7.7682956678415982],
              [109.94863925698087, -7.7685628468201369],
              [109.94880257283585, -7.7680128728735642],
              [109.94908428745087, -7.7680913396102014],
              [109.94914450585119, -7.7679957712703755],
              [109.94929436687231, -7.7680320354495098],
              [109.94882879924532, -7.76952647355888],
              [109.94861646081512, -7.7702186931813477],
              [109.94888485728336, -7.7702842130918857],
              [109.94898974136046, -7.770317375288621],
              [109.94903464929732, -7.7703488931917839],
              [109.94904355261491, -7.7703863065578727],
              [109.94899742582935, -7.7705732414029027],
              [109.94914279006144, -7.7706160398958959],
              [109.94920771674698, -7.7706442003623728],
              [109.9491749281303, -7.7707166228121807],
              [109.94908807482821, -7.7709102364387626],
              [109.94904450485734, -7.771064474765824],
              [109.9491615084177, -7.7710965897676658],
              [109.94912822426642, -7.771262871449804],
              [109.94924572219638, -7.7712829118736666],
              [109.94930156072382, -7.7712947811926005],
              [109.94929712986597, -7.7715118594320218],
              [109.94929500366509, -7.7715959993898824],
              [109.9492967589493, -7.7716610259399426],
              [109.94930336643674, -7.7717031167011177],
              [109.94930996973424, -7.7717461634214544],
              [109.9493271342602, -7.7717834968304587],
              [109.94935288178591, -7.7718390203169863],
              [109.94942944498423, -7.771893714423924],
              [109.94957780007468, -7.7719935265861784],
              [109.94970979461888, -7.7720386488033073],
              [109.94979563567696, -7.7718148684052526],
              [109.94986262631568, -7.7716402281409103],
              [109.94991474222944, -7.771504057583579],
              [109.94994973788499, -7.7714145153729648],
              [109.94996680721097, -7.7713865432217331],
              [109.95001740683182, -7.7713193651299841],
              [109.95006302980997, -7.7712865326634057],
              [109.95017421110585, -7.7711897489274868],
              [109.95022807307514, -7.7711420238521933],
              [109.95035303339884, -7.7710619298718413],
              [109.95038572444567, -7.77103712377468],
              [109.95040883313456, -7.7710065509443274],
              [109.95042051585153, -7.770939578709438],
              [109.95044945201984, -7.7708522589945144],
              [109.95048245413925, -7.7707795963717325],
              [109.95056667863362, -7.7706397679547239],
              [109.95060144557338, -7.7705907502624143],
              [109.95062887399487, -7.7705599013840319],
              [109.95067080331648, -7.770563641616171],
              [109.95071272360541, -7.7705710202962752],
              [109.95075646836533, -7.7705784043829045],
              [109.95078851205483, -7.770586040841156],
              [109.95081309817714, -7.7705367149008993],
              [109.95086616663099, -7.7704604624125864],
              [109.95093041931828, -7.7702860312776547],
              [109.95097815335671, -7.770155206563869],
              [109.95102030382307, -7.7700698358744367],
              [109.95110273240179, -7.769919092872656],
              [109.95116500787917, -7.7698064900656041],
              [109.95135900289357, -7.7695196252435217],
              [109.95148528777418, -7.769330797682402],
              [109.95155668805157, -7.7692145806402761],
              [109.95163173360898, -7.769100193168696],
              [109.95167197005685, -7.7690511879427619],
              [109.95174688836224, -7.7689877216044803],
              [109.95183455621404, -7.768929740343693],
              [109.95191121956293, -7.7688971940147828],
              [109.95200063969627, -7.7688683158002236],
              [109.95205172634202, -7.7688557111970846],
              [109.95212107470431, -7.7688322407154038],
              [109.95217219289704, -7.7688069073864057],
              [109.95231087156992, -7.7687672369447567],
              [109.95234555700821, -7.7687509551972873],
              [109.95237488354873, -7.7686891932972744],
              [109.95245686782076, -7.7684664037365563],
              [109.95236645717434, -7.7684109217735564],
              [109.95226811501347, -7.7683615766169556],
              [109.95239695631881, -7.7680373399782798],
              [109.95209065975155, -7.7678914328446176],
              [109.95213174227062, -7.7678024651839523],
              [109.95203685888269, -7.7677516199524259],
              [109.95207067295205, -7.7676643111658983],
              [109.95218821035064, -7.7673417723311333],
              [109.95219990300892, -7.7673167071563851],
              [109.95208583020897, -7.7672804698390712],
              [109.95176029881247, -7.7671995328714285],
              [109.95146359030331, -7.7671210300244136],
              [109.95133912845027, -7.7670873779472833],
              [109.95133489206951, -7.7670160233465477],
              [109.95135002857523, -7.7669592261301332],
              [109.95138027097789, -7.7668576015971258],
              [109.95144064356111, -7.7666992177309417],
              [109.95147689914691, -7.7665916243855682],
              [109.95148010557638, -7.7665078804242649],
              [109.95147444929793, -7.7663702700412047],
              [109.95148984443831, -7.7662087842884047],
              [109.9515383322412, -7.766005503768552],
              [109.95157771343693, -7.7658470689821364],
              [109.95160817814892, -7.7656557076383779],
              [109.95177125140742, -7.7652014512823504],
              [109.95189108833218, -7.7647674258839636],
              [109.95197585461378, -7.7644469813160786],
              [109.95205328132411, -7.764183947405364],
              [109.95214038144796, -7.7638898289141238],
              [109.95225401642578, -7.7635383460754603],
              [109.9523379074095, -7.7632298275737428],
              [109.95234231290029, -7.7632300609149665],
              [109.95189737162464, -7.7631846813877274]
            ]
          ],
          [
            [
              [109.95386532587925, -7.7572798181646112],
              [109.95374586362033, -7.7571779780467986],
              [109.95359196859589, -7.7570423717481018],
              [109.95357370574249, -7.7570631022616618],
              [109.95354313294186, -7.7571170552958897],
              [109.95354313344851, -7.7571458303084331],
              [109.95354493244041, -7.7571817980698494],
              [109.95356111702245, -7.757210573085608],
              [109.9535647141435, -7.7572465416510905],
              [109.95353953626635, -7.7572933024389839],
              [109.95351170538243, -7.7573289712304732],
              [109.95309356922282, -7.7573229801942176],
              [109.95294965269346, -7.7573750109813293],
              [109.95230522267678, -7.7573601208428267],
              [109.95210451754895, -7.7573539387579959],
              [109.95205084257123, -7.7573493378442908],
              [109.95199640191444, -7.7573562392488649],
              [109.95193659330987, -7.7573700408047408],
              [109.95184688019545, -7.7574007129844516],
              [109.95179167138356, -7.7574168149328866],
              [109.95173953042793, -7.757455154145501],
              [109.95167309628671, -7.757432230782352],
              [109.95165061627937, -7.7573957001837837],
              [109.9516506160256, -7.7573760299748837],
              [109.95165061581534, -7.7573394986830886],
              [109.95165061600261, -7.7572636269754662],
              [109.9516449959733, -7.7572046160713066],
              [109.95162251477592, -7.7571652754400944],
              [109.95155788413354, -7.7571175039799183],
              [109.95151649576025, -7.7570939440938682],
              [109.95146407303147, -7.7572259215949861],
              [109.95140619818466, -7.757344948841661],
              [109.95137301374787, -7.7573735832731412],
              [109.95134274581613, -7.7573907369599064],
              [109.95129954682322, -7.7573963735614218],
              [109.95122754731142, -7.7574062478292038],
              [109.95115843390349, -7.7574132549548569],
              [109.95106482376794, -7.7574302533963095],
              [109.95097408640304, -7.7574501304277712],
              [109.95082000334953, -7.7574727227894877],
              [109.95075954111616, -7.7574740099279911],
              [109.95072737955883, -7.7574791952468063],
              [109.95072478333545, -7.7575586347933436],
              [109.95072603375996, -7.7576347329534254],
              [109.95072589496493, -7.7576907278864011],
              [109.95071642861693, -7.7577352127966117],
              [109.95069476103015, -7.7577653099719175],
              [109.95065803457081, -7.757772398679859],
              [109.95059612704546, -7.7577765537545131],
              [109.95056011078746, -7.7577879510467653],
              [109.95053529101797, -7.75792859566823],
              [109.95052644759704, -7.7580118482027283],
              [109.9505155732982, -7.7583334326446733],
              [109.9504951311004, -7.7584496814113377],
              [109.95048352258121, -7.7584869808461372],
              [109.95046189234615, -7.7585027213526736],
              [109.95026762408699, -7.7584763992445014],
              [109.9501647719005, -7.7584469499427478],
              [109.95015398778172, -7.7584421380553454],
              [109.95013241864046, -7.7584325133731777],
              [109.95010847484285, -7.7584133095606687],
              [109.95009894379871, -7.7583869647507804],
              [109.95008221483204, -7.758360600370569],
              [109.95003667816249, -7.7583413441765616],
              [109.949880814342, -7.7583074589617471],
              [109.94970330103058, -7.7582974484503531],
              [109.94968107965164, -7.7585510458716751],
              [109.94983701890017, -7.7585538238836884],
              [109.9498428571971, -7.7591018226944097],
              [109.94982117521862, -7.7591376637316616],
              [109.94977664144312, -7.7596807519932973],
              [109.94976166538899, -7.7599152225588481],
              [109.94974194913885, -7.7601257541247346],
              [109.94973696136222, -7.7602023161964668],
              [109.94973169444231, -7.7603913474225132],
              [109.94970529597877, -7.7603936744293165],
              [109.94968126895269, -7.76040797183955],
              [109.94966438642821, -7.7604438247067522],
              [109.94967379274239, -7.7605204214120587],
              [109.94967365018876, -7.7605778534303642],
              [109.9496663215551, -7.7606304788093841],
              [109.94964694465983, -7.7607046122538499],
              [109.9496351389481, -7.7607727020768458],
              [109.94964507958535, -7.7608272856562417],
              [109.94968231512544, -7.7609049088602537],
              [109.9497224358991, -7.7609796703720786],
              [109.94974335155341, -7.7610480354441744],
              [109.94973319707663, -7.7610795971791164],
              [109.94974029882746, -7.7611183807960664],
              [109.94974163362095, -7.7611600217010288],
              [109.94972861885631, -7.7611843980046293],
              [109.94960890786717, -7.761277426591878],
              [109.94957162554894, -7.7613289487617836],
              [109.94953562037834, -7.7614193857708047],
              [109.94942002531967, -7.7615937859145694],
              [109.94937201863669, -7.7616032387858516],
              [109.94927612230352, -7.761574286610335],
              [109.94924014609525, -7.7615694133585542],
              [109.94918018438392, -7.7615620850399711],
              [109.94909618961246, -7.7615714498669641],
              [109.94901883625478, -7.7615829429045897],
              [109.94885858160654, -7.7616067563332081],
              [109.94877503041035, -7.761641236069754],
              [109.94843520131944, -7.7617814779430025],
              [109.9483280930399, -7.7618184154266228],
              [109.94815644601904, -7.7618759406131934],
              [109.94785493338244, -7.7619225356456125],
              [109.94779012540364, -7.7619343398522771],
              [109.94771683405348, -7.7619379326520725],
              [109.94752099825205, -7.7619817247283507],
              [109.94749009065607, -7.7619886357697734],
              [109.94720428419166, -7.7621099677472412],
              [109.94720792979813, -7.762196918429316],
              [109.94722013772342, -7.7624880933142482],
              [109.94717596328279, -7.7624992466651364],
              [109.94717261515287, -7.7625000921462721],
              [109.94684541390136, -7.762582713566581],
              [109.9468072161703, -7.7625923604477549],
              [109.94652154023854, -7.7626610478834461],
              [109.94624474059736, -7.7626617141833885],
              [109.94603210072665, -7.7626622273002903],
              [109.94602748688101, -7.7625880346635725],
              [109.94570277135281, -7.7625926273154189],
              [109.94559561588591, -7.7625941433439909],
              [109.94558104784907, -7.7626635022391719],
              [109.94559732455558, -7.7631295425765465],
              [109.94584023641937, -7.7631331357418532],
              [109.94583999698028, -7.7632288532281182],
              [109.94586383942301, -7.7632887359086231],
              [109.9458667188742, -7.7633366011824929],
              [109.94588163972031, -7.7633665499587066],
              [109.94589277081432, -7.7637135535573121],
              [109.94592864723613, -7.7637585106296756],
              [109.94594329139021, -7.7638991331455163],
              [109.9459461550294, -7.7639529810991892],
              [109.94594899156812, -7.7640187953282958],
              [109.94593075144982, -7.7641174572867078],
              [109.94602998758675, -7.7642883704224914],
              [109.94604182250316, -7.7643151144333187],
              [109.94636441022755, -7.7640418963718547],
              [109.94676003303823, -7.7636989872608853],
              [109.94689620975272, -7.7636096153960814],
              [109.94703582512106, -7.763517984620532],
              [109.94706118852065, -7.7635013328898124],
              [109.94706028485274, -7.7632436250421986],
              [109.94708998771539, -7.7632435213257684],
              [109.94714467903256, -7.7632433302507513],
              [109.94714538675863, -7.7634460788839696],
              [109.94721022526473, -7.7634035255949199],
              [109.94727033622536, -7.7633640754038549],
              [109.94722443408099, -7.7632951482501227],
              [109.94733884580431, -7.7632189548581074],
              [109.94738526019492, -7.7632886511196277],
              [109.9477005077713, -7.7630817535821315],
              [109.94787179635757, -7.7629815311140549],
              [109.94787273993629, -7.7629831433121446],
              [109.9478519710418, -7.7629266056143003],
              [109.94783293265051, -7.7628567998683371],
              [109.94778216459841, -7.7628637232827487],
              [109.9477596660804, -7.7627858397591725],
              [109.94804696682034, -7.7626894956877361],
              [109.94804350461068, -7.7626341132422825],
              [109.94815715672242, -7.7626266127582744],
              [109.94816417603795, -7.7628104557466022],
              [109.9484709198793, -7.7626309756365695],
              [109.94847097430248, -7.7626313339206137],
              [109.94846382057143, -7.7623544911051221],
              [109.94854765273803, -7.7623445761375853],
              [109.94856368535822, -7.7625766975498163],
              [109.94882900941927, -7.7624214526140562],
              [109.94887483835451, -7.7623958433390818],
              [109.94887487807742, -7.762395913981865],
              [109.94885060305381, -7.7622971973540578],
              [109.94888579500633, -7.7622885431366502],
              [109.94885521803596, -7.7622014299912045],
              [109.94902309892441, -7.7621425847194132],
              [109.94908067896382, -7.7622808135588466],
              [109.94912525295813, -7.7622559047888133],
              [109.949270299107, -7.7621748501744188],
              [109.94957812368716, -7.7620151686180838],
              [109.95000503118594, -7.7617937160180697],
              [109.95082082373213, -7.7613705259425618],
              [109.951751424386, -7.7611441110748594],
              [109.95226102561192, -7.7609941116603549],
              [109.95247754306837, -7.7609171579403631],
              [109.95280990194281, -7.7607990334488104],
              [109.95291352632476, -7.7607520145607278],
              [109.95291521189914, -7.7607557313508373],
              [109.95300301588988, -7.7602134976354309],
              [109.95318186531135, -7.7602424586604997],
              [109.95313048389022, -7.7605597589567967],
              [109.95308988625823, -7.7606719942412932],
              [109.95363741307168, -7.7604235607360872],
              [109.954097555677, -7.7601865261515703],
              [109.95408319623849, -7.7601229282402242],
              [109.95408319579853, -7.7601025607110152],
              [109.95409715358686, -7.7599636128766525],
              [109.95410595744953, -7.7598975910927388],
              [109.95410375575189, -7.7598425716466863],
              [109.95410815809453, -7.7597633462722406],
              [109.95415217305617, -7.7597083273965364],
              [109.95420499013501, -7.7596885211193536],
              [109.95425780813083, -7.7596797180061881],
              [109.95431282687916, -7.7596731153221663],
              [109.95436344411455, -7.7596599113063141],
              [109.95444927241164, -7.759626900209267],
              [109.9545042910993, -7.7595894866336996],
              [109.95456591112874, -7.7595586770650407],
              [109.95463853581631, -7.7595322683011734],
              [109.95468915303495, -7.7595212646960965],
              [109.95475297385529, -7.7595146618730002],
              [109.95485420837102, -7.7595256659502008],
              [109.95495544193165, -7.7595168632077849],
              [109.95506327768663, -7.7594904540366096],
              [109.95515350914789, -7.7594354364032965],
              [109.95520852684309, -7.7593958222688419],
              [109.95527454913966, -7.759345204844653],
              [109.95532076471197, -7.7593033912341429],
              [109.95538571340924, -7.7592747955869958],
              [109.95563331291885, -7.7590791823128225],
              [109.95576181862521, -7.759218850785226],
              [109.95583827168369, -7.7591541906085935],
              [109.95587856639899, -7.7591151272077905],
              [109.95588427279367, -7.7591095953083578],
              [109.95595253042315, -7.759058143945829],
              [109.95597627524118, -7.7590350047433745],
              [109.95599104405413, -7.7590206136750677],
              [109.95601866559146, -7.7589936962711734],
              [109.95620380731376, -7.7588302334217039],
              [109.95624199669399, -7.7587954752790571],
              [109.95646607026943, -7.7585917254316197],
              [109.95655236200388, -7.7585254431814619],
              [109.95665432981359, -7.7584471199127698],
              [109.95660333077271, -7.7583688258038386],
              [109.95656464564742, -7.7583185347046362],
              [109.9565569090425, -7.7582585743714327],
              [109.9565627117411, -7.7581966783178222],
              [109.95658011978588, -7.7581386508916639],
              [109.95660526466595, -7.7580786888881708],
              [109.9566226733703, -7.7580225960152838],
              [109.95663234400398, -7.757993583313505],
              [109.95663234380079, -7.7579877796476744],
              [109.95662654213335, -7.7579587660877056],
              [109.95660913418619, -7.7579336212152539],
              [109.95657625078385, -7.7579046072695359],
              [109.95651048676429, -7.757891067814163],
              [109.95643505155969, -7.7578736599400093],
              [109.95634220776779, -7.7578291717114771],
              [109.95627837826071, -7.7577904868490934],
              [109.95622421857425, -7.7577595385941338],
              [109.95615265203556, -7.7577692103655913],
              [109.95609462526615, -7.7578175657387778],
              [109.95607141393091, -7.7578523832367914],
              [109.95594375402602, -7.7578717248823121],
              [109.95592441189309, -7.7578620543925796],
              [109.95588766139312, -7.7578311063056375],
              [109.95586058227342, -7.7578098303022021],
              [109.95579868604679, -7.7578156322124885],
              [109.95574259308445, -7.7578369094170609],
              [109.95568843403248, -7.7578601195834134],
              [109.95563621016822, -7.7578601198374155],
              [109.95560719634132, -7.7578581864247536],
              [109.95558398539612, -7.757823368973793],
              [109.9555356290266, -7.7577711448334803],
              [109.95548533870715, -7.7577614734265046],
              [109.95536154736276, -7.7577788816994202],
              [109.95531899445048, -7.7577846839970803],
              [109.9552764403053, -7.7577711452661742],
              [109.95521454531449, -7.7577305259310867],
              [109.95515458317274, -7.7577150524000205],
              [109.95510429342946, -7.7577227892261567],
              [109.95507721330742, -7.7577537361912885],
              [109.95504239696297, -7.7578253033600832],
              [109.95504433109396, -7.7579200813671809],
              [109.95504626557882, -7.7579974511006107],
              [109.95502498922387, -7.7580612807398159],
              [109.95495728955495, -7.758132847630332],
              [109.95479568997611, -7.7581800593619317],
              [109.95465823109201, -7.7580519000307566],
              [109.95429602542059, -7.7576866736045389],
              [109.95404137496352, -7.757429898002953],
              [109.95386532587925, -7.7572798181646112]
            ]
          ],
          [
            [
              [109.95687034750664, -7.7550645906769109],
              [109.95672947855499, -7.7550313417167782],
              [109.95664258187053, -7.7550012168319764],
              [109.95655864055198, -7.7549890455904222],
              [109.95616880907524, -7.754976127042478],
              [109.95573889994769, -7.7549935128122947],
              [109.95563592695083, -7.7550513917890402],
              [109.95551731740866, -7.7550729578849493],
              [109.95533707521987, -7.7550572317745212],
              [109.95531119980595, -7.7550549741468551],
              [109.95516028256415, -7.7550418070889044],
              [109.95497772222595, -7.7550130542047189],
              [109.95489715680081, -7.7550148823063454],
              [109.95485398718975, -7.7550182664694036],
              [109.95483042407419, -7.7550681651543423],
              [109.95482428993805, -7.7550842686649961],
              [109.95480511958783, -7.7551141723643084],
              [109.9547874842408, -7.7553388394303848],
              [109.95471770722543, -7.7553587751445248],
              [109.95443859900224, -7.7552652283231733],
              [109.95422006597207, -7.7552391569817196],
              [109.95412393241291, -7.7552478790587198],
              [109.95403167945263, -7.7552622569418208],
              [109.9539142654113, -7.7553041903281743],
              [109.95383998318563, -7.7553437271621233],
              [109.95378726640705, -7.755361699550031],
              [109.95275529288962, -7.7553757397696437],
              [109.9524718374043, -7.7553939491531896],
              [109.95247852127409, -7.7554969147453994],
              [109.95247845706348, -7.7555232368061953],
              [109.95250235940466, -7.7555591902236554],
              [109.95253825822967, -7.7555951722588148],
              [109.95255015226329, -7.7556358814049826],
              [109.95255005754753, -7.7556741697628588],
              [109.95254276675389, -7.755712441315735],
              [109.95251624427505, -7.7557650150548181],
              [109.9529067106495, -7.7561677053608342],
              [109.95297977284827, -7.7562688671500837],
              [109.95304721426679, -7.7563306882347227],
              [109.95312870640829, -7.7563868903475974],
              [109.95322424772381, -7.7564065604202286],
              [109.95332260028795, -7.756395319806427],
              [109.95341252164464, -7.7563587889546275],
              [109.95349682280556, -7.7563138277339112],
              [109.95357269522955, -7.7562744866349203],
              [109.95359517495625, -7.7562660566416257],
              [109.95362327640102, -7.7561564648596288],
              [109.95362889638888, -7.756089023446795],
              [109.95365699681892, -7.756060922575057],
              [109.95375253940912, -7.7560103417322024],
              [109.95385089086822, -7.7559653805972699],
              [109.95391552222912, -7.7559119896711302],
              [109.9539520527787, -7.7558585993103835],
              [109.95402511444262, -7.755830497664661],
              [109.95415437672131, -7.755867029182129],
              [109.95432297976234, -7.7558838894163511],
              [109.95447753293766, -7.7558810792134798],
              [109.95468828768828, -7.7558136378625564],
              [109.95476696856174, -7.7557855372205804],
              [109.95487375107986, -7.755749006733434],
              [109.95502830370609, -7.7557096658944653],
              [109.95525591928941, -7.755718095829077],
              [109.95530369041771, -7.7556843751133666],
              [109.95541285025847, -7.7557034160783278],
              [109.95557064479088, -7.7557040456981827],
              [109.9556661865972, -7.7557040458890505],
              [109.9557336287067, -7.7556506552164439],
              [109.95580668979539, -7.7556028839121858],
              [109.95591066238684, -7.7555607334211851],
              [109.95599215440193, -7.7555270121283995],
              [109.95614951726756, -7.7555213918263446],
              [109.95629844997578, -7.7555242016978516],
              [109.95641647321324, -7.7555466819443595],
              [109.95648672395617, -7.7555747826831487],
              [109.95654573495845, -7.7556618946128451],
              [109.95658507599273, -7.7557461971213435],
              [109.95666656785464, -7.7558192579053964],
              [109.95674805882095, -7.7558304979188062],
              [109.95682674077591, -7.7558276880955486],
              [109.95686608217993, -7.7558529789592434],
              [109.95687451181601, -7.7559400898862769],
              [109.95695881437669, -7.7559485212927921],
              [109.95705435603806, -7.755954141247992],
              [109.95717799786641, -7.7559541412275728],
              [109.95728759024111, -7.7559850505983086],
              [109.95735095573369, -7.7560257862825779],
              [109.9573465948489, -7.7559665921226042],
              [109.95734577267254, -7.7559554376977307],
              [109.95732540980335, -7.7557807016829186],
              [109.95721693979399, -7.7557885594491758],
              [109.95720295575607, -7.755097370578329],
              [109.95701126624614, -7.7550769005702689],
              [109.95687034750664, -7.7550645906769109]
            ]
          ]
        ]
      },
      "properties": {
        "OBJECTID": 1,
        "Nama": "Persawahan",
        "Shape_Length": 9132.4718034459165,
        "Shape_Area": 661245.28651404998
      }
    },
    {
      "type": "Feature",
      "id": 2,
      "geometry": {
        "type": "Polygon",
        "coordinates": [
          [
            [109.95654573495845, -7.7556618946128451],
            [109.95648672395617, -7.7555747826831487],
            [109.95641647321324, -7.7555466819443595],
            [109.95629844997578, -7.7555242016978516],
            [109.95614951726756, -7.7555213918263446],
            [109.95599215440193, -7.7555270121283995],
            [109.95591066238684, -7.7555607334211851],
            [109.95580668979539, -7.7556028839121858],
            [109.9557336287067, -7.7556506552164439],
            [109.9556661865972, -7.7557040458890505],
            [109.95557064479088, -7.7557040456981827],
            [109.95541285025847, -7.7557034160783278],
            [109.95530369041771, -7.7556843751133666],
            [109.95525591928941, -7.755718095829077],
            [109.95502830370609, -7.7557096658944653],
            [109.95487375107986, -7.755749006733434],
            [109.95476696856174, -7.7557855372205804],
            [109.95468828768828, -7.7558136378625564],
            [109.95447753293766, -7.7558810792134798],
            [109.95432297976234, -7.7558838894163511],
            [109.95415437672131, -7.755867029182129],
            [109.95402511444262, -7.755830497664661],
            [109.9539520527787, -7.7558585993103835],
            [109.95391552222912, -7.7559119896711302],
            [109.95385089086822, -7.7559653805972699],
            [109.95375253940912, -7.7560103417322024],
            [109.95365699681892, -7.756060922575057],
            [109.95362889638888, -7.756089023446795],
            [109.95362327640102, -7.7561564648596288],
            [109.95359517495625, -7.7562660566416257],
            [109.95357269522955, -7.7562744866349203],
            [109.95349682280556, -7.7563138277339112],
            [109.95341252164464, -7.7563587889546275],
            [109.95332260028795, -7.756395319806427],
            [109.95322424772381, -7.7564065604202286],
            [109.95312870640829, -7.7563868903475974],
            [109.95304721426679, -7.7563306882347227],
            [109.95297977284827, -7.7562688671500837],
            [109.9529067106495, -7.7561677053608342],
            [109.95251624427505, -7.7557650150548181],
            [109.95244405176852, -7.7558533782155541],
            [109.95241411769788, -7.7558796864486528],
            [109.95238418271458, -7.7559059955812826],
            [109.95238097686209, -7.7559101977618941],
            [109.95234591172627, -7.7559561536244797],
            [109.95234146582186, -7.7560078311439513],
            [109.95237515856873, -7.7560624731690604],
            [109.95242112892521, -7.7560999153216779],
            [109.95247718862716, -7.7561330772673518],
            [109.95250948144177, -7.7561719210614388],
            [109.95249284313111, -7.7562049022669042],
            [109.95246691283234, -7.756213453942963],
            [109.95240642588688, -7.7562247911855939],
            [109.95229841759469, -7.7562431898129818],
            [109.95221056304391, -7.7562616389337098],
            [109.95212989035794, -7.7562858487796369],
            [109.95205923859024, -7.7563330546251992],
            [109.95197847968319, -7.756391722595132],
            [109.95191065354652, -7.7564604723011499],
            [109.95184272075007, -7.7565722955928535],
            [109.95179208222149, -7.7566755450651224],
            [109.95175246260875, -7.7567484539914986],
            [109.95170682925287, -7.7568059910637484],
            [109.95166499469855, -7.7568417816882622],
            [109.95162461785492, -7.7568703984296326],
            [109.95158707732305, -7.7569162504310452],
            [109.95151649576025, -7.7570939440938682],
            [109.95155788413354, -7.7571175039799183],
            [109.95162251477592, -7.7571652754400944],
            [109.9516449959733, -7.7572046160713066],
            [109.95165061600261, -7.7572636269754662],
            [109.95165061581534, -7.7573394986830886],
            [109.9516506160256, -7.7573760299748837],
            [109.95165061627937, -7.7573957001837837],
            [109.95167309628671, -7.757432230782352],
            [109.95173953042793, -7.757455154145501],
            [109.95179167138356, -7.7574168149328866],
            [109.95184688019545, -7.7574007129844516],
            [109.95193659330987, -7.7573700408047408],
            [109.95199640191444, -7.7573562392488649],
            [109.95205084257123, -7.7573493378442908],
            [109.95210451754895, -7.7573539387579959],
            [109.95230522267678, -7.7573601208428267],
            [109.95294965269346, -7.7573750109813293],
            [109.95309356922282, -7.7573229801942176],
            [109.95351170538243, -7.7573289712304732],
            [109.95353953626635, -7.7572933024389839],
            [109.9535647141435, -7.7572465416510905],
            [109.95356111702245, -7.757210573085608],
            [109.95354493244041, -7.7571817980698494],
            [109.95354313344851, -7.7571458303084331],
            [109.95354313294186, -7.7571170552958897],
            [109.95357370574249, -7.7570631022616618],
            [109.9535919704072, -7.7570423726569917],
            [109.95374586362033, -7.7571779780467986],
            [109.95386532587925, -7.7572798181646112],
            [109.95404137496352, -7.757429898002953],
            [109.95429602542059, -7.7576866736045389],
            [109.95465823109201, -7.7580519000307566],
            [109.95479568997611, -7.7581800593619317],
            [109.95495728955495, -7.758132847630332],
            [109.95502498922387, -7.7580612807398159],
            [109.95504626557882, -7.7579974511006107],
            [109.95504433109396, -7.7579200813671809],
            [109.95504239696297, -7.7578253033600832],
            [109.95507721330742, -7.7577537361912885],
            [109.95510429342946, -7.7577227892261567],
            [109.95515458317274, -7.7577150524000205],
            [109.95521454531449, -7.7577305259310867],
            [109.9552764403053, -7.7577711452661742],
            [109.95531899445048, -7.7577846839970803],
            [109.95536154736276, -7.7577788816994202],
            [109.95548533870715, -7.7577614734265046],
            [109.9555356290266, -7.7577711448334803],
            [109.95558398539612, -7.757823368973793],
            [109.95560719634132, -7.7578581864247536],
            [109.95563621016822, -7.7578601198374155],
            [109.95568843403248, -7.7578601195834134],
            [109.95574259308445, -7.7578369094170609],
            [109.95579868604679, -7.7578156322124885],
            [109.95586058227342, -7.7578098303022021],
            [109.95588766139312, -7.7578311063056375],
            [109.95592441189309, -7.7578620543925796],
            [109.95594375402602, -7.7578717248823121],
            [109.95607141393091, -7.7578523832367914],
            [109.95609462526615, -7.7578175657387778],
            [109.95615265203556, -7.7577692103655913],
            [109.95622421857425, -7.7577595385941338],
            [109.95627837826071, -7.7577904868490934],
            [109.95634220776779, -7.7578291717114771],
            [109.95643505155969, -7.7578736599400093],
            [109.95651048676429, -7.757891067814163],
            [109.95657625078385, -7.7579046072695359],
            [109.95660913418619, -7.7579336212152539],
            [109.95662654213335, -7.7579587660877056],
            [109.95663234380079, -7.7579877796476744],
            [109.95663234400398, -7.757993583313505],
            [109.9566226733703, -7.7580225960152838],
            [109.95660526466595, -7.7580786888881708],
            [109.95658011978588, -7.7581386508916639],
            [109.9565627117411, -7.7581966783178222],
            [109.9565569090425, -7.7582585743714327],
            [109.95656464564742, -7.7583185347046362],
            [109.95660333077271, -7.7583688258038386],
            [109.95665432981359, -7.7584471199127698],
            [109.95671469210667, -7.7584007553969103],
            [109.95669132245258, -7.7583622186258578],
            [109.95722502759271, -7.757872135405413],
            [109.95726692067245, -7.7578945591668322],
            [109.95735074811631, -7.7579292781744229],
            [109.95745597899928, -7.7579669826448496],
            [109.95751914439371, -7.7576347257526752],
            [109.95758837077702, -7.7574445129923042],
            [109.95768584741757, -7.7571766751496449],
            [109.95769097505652, -7.7570426824110079],
            [109.95775002755671, -7.7564445898284902],
            [109.95734947431099, -7.7564005347618883],
            [109.95735970205564, -7.7561445147246904],
            [109.95735095573369, -7.7560257862825779],
            [109.95728759024111, -7.7559850505983086],
            [109.95717799786641, -7.7559541412275728],
            [109.95705435603806, -7.755954141247992],
            [109.95695881437669, -7.7559485212927921],
            [109.95687451181601, -7.7559400898862769],
            [109.95686608217993, -7.7558529789592434],
            [109.95682674077591, -7.7558276880955486],
            [109.95674805882095, -7.7558304979188062],
            [109.95666656785464, -7.7558192579053964],
            [109.95658507599273, -7.7557461971213435],
            [109.95654573495845, -7.7556618946128451]
          ]
        ]
      },
      "properties": {
        "OBJECTID": 2,
        "Nama": "Dusun Tegaliser",
        "Shape_Length": 2015.0184395906679,
        "Shape_Area": 125144.72208756809
      }
    },
    {
      "type": "Feature",
      "id": 6,
      "geometry": {
        "type": "Polygon",
        "coordinates": [
          [
            [109.95202575031567, -7.7619259526738222],
            [109.95155364260727, -7.7618541340796794],
            [109.95135210043699, -7.7618369081559173],
            [109.95137371469326, -7.7615840154303752],
            [109.95140409126307, -7.7612286175822343],
            [109.95082082373213, -7.7613705259425618],
            [109.95000503118594, -7.7617937160180697],
            [109.94957812368716, -7.7620151686180838],
            [109.949270299107, -7.7621748501744188],
            [109.94912525295813, -7.7622559047888133],
            [109.94908067896382, -7.7622808135588466],
            [109.94902309892441, -7.7621425847194132],
            [109.94885521803596, -7.7622014299912045],
            [109.94888579500633, -7.7622885431366502],
            [109.94885060305381, -7.7622971973540578],
            [109.94887487807742, -7.762395913981865],
            [109.94887483835451, -7.7623958433390818],
            [109.94882900941927, -7.7624214526140562],
            [109.94856368535822, -7.7625766975498163],
            [109.94854765273803, -7.7623445761375853],
            [109.94846382057143, -7.7623544911051221],
            [109.94847097430248, -7.7626313339206137],
            [109.9484709198793, -7.7626309756365695],
            [109.94816417876052, -7.7628104548489194],
            [109.94815715672242, -7.7626266127582744],
            [109.94804350461068, -7.7626341132422825],
            [109.94804696682034, -7.7626894956877361],
            [109.9477596660804, -7.7627858397591725],
            [109.94778216459841, -7.7628637232827487],
            [109.94783293265051, -7.7628567998683371],
            [109.9478519710418, -7.7629266056143003],
            [109.94787273993629, -7.7629831433121446],
            [109.94787179635757, -7.7629815311140549],
            [109.9477005077713, -7.7630817535821315],
            [109.94738526019492, -7.7632886511196277],
            [109.94733884580431, -7.7632189548581074],
            [109.94722443408099, -7.7632951482501227],
            [109.94727033622536, -7.7633640754038549],
            [109.94721022526473, -7.7634035255949199],
            [109.94714538675863, -7.7634460788839696],
            [109.94714467903256, -7.7632433302507513],
            [109.94708998771539, -7.7632435213257684],
            [109.94706028485274, -7.7632436250421986],
            [109.94706118852065, -7.7635013328898124],
            [109.94703582512106, -7.763517984620532],
            [109.94689620975272, -7.7636096153960814],
            [109.94676003303823, -7.7636989872608853],
            [109.94636441022755, -7.7640418963718547],
            [109.94604182250316, -7.7643151144333187],
            [109.94605597573052, -7.7643470899129827],
            [109.9460638187967, -7.7643648097026334],
            [109.94617862602452, -7.7648924988073711],
            [109.94610490356065, -7.7649382604472708],
            [109.94612619613073, -7.765056764739632],
            [109.94635743303056, -7.7650262738890499],
            [109.94646747006621, -7.7650090795827476],
            [109.94659469985737, -7.7650606599407945],
            [109.94666691186623, -7.7650916080460259],
            [109.94676663310285, -7.7651225555591452],
            [109.94693856477109, -7.7651363107846869],
            [109.94703140863065, -7.765115678561135],
            [109.94714488538915, -7.7650572222240566],
            [109.94722397431376, -7.7649884481181841],
            [109.94733057219408, -7.7649059208020521],
            [109.94751282068025, -7.7648302698151976],
            [109.94765036701597, -7.7647958842914111],
            [109.94782573838701, -7.7647752517531323],
            [109.94801142511545, -7.764740864957707],
            [109.94816616474387, -7.7646927240044281],
            [109.94847908180809, -7.7646583379177088],
            [109.94859943486001, -7.7646445827268531],
            [109.94870603297299, -7.764613634872843],
            [109.94877136838775, -7.764593002955416],
            [109.94895017755341, -7.7645620554087076],
            [109.94902582828209, -7.7645276692387162],
            [109.94917860277801, -7.7644729497231451],
            [109.94917685129808, -7.7641187499826554],
            [109.94917658660948, -7.7640654248428422],
            [109.94917651074221, -7.7640499735781008],
            [109.94928281944749, -7.7640847154333841],
            [109.94933915804867, -7.7641044344022552],
            [109.94938141221313, -7.7641016166402261],
            [109.94941803264669, -7.7640903494460636],
            [109.94948423089109, -7.7640720393677514],
            [109.94954197763022, -7.7640410528753661],
            [109.94960958488184, -7.7640213335557453],
            [109.94966310701928, -7.7640213337311801],
            [109.94970676915354, -7.7640157003421617],
            [109.94973353035108, -7.7639973895746905],
            [109.94975888304636, -7.7639762625855662],
            [109.94977719311986, -7.7639495017622044],
            [109.94978423506585, -7.763869218578713],
            [109.94977860196153, -7.763798794804794],
            [109.9497560661232, -7.7637452726513638],
            [109.94974479762074, -7.7637171038461128],
            [109.94973916388172, -7.7636790754255687],
            [109.94973916399786, -7.7636311873875545],
            [109.94975184122916, -7.7635861162698792],
            [109.94977860187437, -7.7635621718730796],
            [109.949827897552, -7.7635438615830585],
            [109.94989973020702, -7.7635325935758193],
            [109.94998705604723, -7.7635100585870189],
            [109.95002226676233, -7.7635030160058731],
            [109.95009691640766, -7.7634973822103435],
            [109.95017156463346, -7.7634959738402571],
            [109.95020677704237, -7.7634973821322211],
            [109.95037155730481, -7.763522522052706],
            [109.95051584355888, -7.7635289350895347],
            [109.9505479077597, -7.7635332098251473],
            [109.9505607341128, -7.763517178106067],
            [109.95057142234732, -7.7634883209784151],
            [109.95057142231872, -7.7634455691194946],
            [109.95057676611059, -7.7634049549278723],
            [109.95060686708491, -7.7631051276780223],
            [109.9508716675696, -7.7630987474130517],
            [109.95089404109081, -7.7630982084093647],
            [109.95091756539296, -7.763097640588926],
            [109.95155220419072, -7.7631494770350171],
            [109.95189737162464, -7.7631846813877274],
            [109.95202575031567, -7.7619259526738222]
          ]
        ]
      },
      "properties": {
        "OBJECTID": 6,
        "Nama": "Dusun Kliwonan",
        "Shape_Length": 2074.9327531632298,
        "Shape_Area": 123333.17168095436
      }
    },
    {
      "type": "Feature",
      "id": 7,
      "geometry": {
        "type": "Polygon",
        "coordinates": [
          [
            [109.95545559133015, -7.759498976607607],
            [109.95546237184742, -7.7594851646746816],
            [109.95546508405197, -7.7594796408058704],
            [109.9554806518956, -7.7594479302706167],
            [109.95549425302045, -7.7594202269127797],
            [109.95538571340924, -7.7592747955869958],
            [109.95532076471197, -7.7593033912341429],
            [109.95527454913966, -7.759345204844653],
            [109.95520852684309, -7.7593958222688419],
            [109.95515350914789, -7.7594354364032965],
            [109.95506327768663, -7.7594904540366096],
            [109.95495544193165, -7.7595168632077849],
            [109.95485420837102, -7.7595256659502008],
            [109.95475297385529, -7.7595146618730002],
            [109.95468915303495, -7.7595212646960965],
            [109.95463853581631, -7.7595322683011734],
            [109.95456591112874, -7.7595586770650407],
            [109.9545042910993, -7.7595894866336996],
            [109.95444927241164, -7.759626900209267],
            [109.95436344411455, -7.7596599113063141],
            [109.95431282687916, -7.7596731153221663],
            [109.95425780813083, -7.7596797180061881],
            [109.95420499013501, -7.7596885211193536],
            [109.95415217305617, -7.7597083273965364],
            [109.95410815809453, -7.7597633462722406],
            [109.95410375575189, -7.7598425716466863],
            [109.95410595744953, -7.7598975910927388],
            [109.95409715358686, -7.7599636128766525],
            [109.95408319579853, -7.7601025607110152],
            [109.95408319623849, -7.7601229282402242],
            [109.954097555677, -7.7601865261515703],
            [109.95363741307168, -7.7604235607360872],
            [109.95308988625823, -7.7606719942412932],
            [109.95313048389022, -7.7605597589567967],
            [109.95318186531135, -7.7602424586604997],
            [109.95300301588988, -7.7602134976354309],
            [109.95291521189914, -7.7607557313508373],
            [109.95291352632476, -7.7607520145607278],
            [109.95280990194281, -7.7607990334488104],
            [109.95247754306837, -7.7609171579403631],
            [109.95226102561192, -7.7609941116603549],
            [109.951751424386, -7.7611441110748594],
            [109.95140409126307, -7.7612286175822343],
            [109.95135210043699, -7.7618369081559173],
            [109.95155364260727, -7.7618541340796794],
            [109.95202575031567, -7.7619259526738222],
            [109.95189737162464, -7.7631846813877274],
            [109.95234231290029, -7.7632300609149665],
            [109.95257624193586, -7.7632424154484019],
            [109.95264346127601, -7.763225829370918],
            [109.95268429380771, -7.7632067861047718],
            [109.95268589960506, -7.7632053692175065],
            [109.95272757488144, -7.7631686059312397],
            [109.95328398662382, -7.7632513356692137],
            [109.9533132742469, -7.7630504005936674],
            [109.95338086562026, -7.7628830612834934],
            [109.95339553307221, -7.7627730214218822],
            [109.9534677927973, -7.7626583371073758],
            [109.95350631059503, -7.7626057865543281],
            [109.95356870244905, -7.762601154804063],
            [109.95359747992069, -7.7626060127071552],
            [109.95365024985264, -7.7626109278339301],
            [109.95370297243899, -7.7626349866818689],
            [109.95376047093588, -7.7626686305528647],
            [109.95382276630714, -7.7627022844093618],
            [109.95390906689529, -7.7627312111226576],
            [109.95409128459387, -7.7627795166824916],
            [109.95418532882324, -7.7628691019057046],
            [109.95432995772552, -7.7630046918011946],
            [109.95456498073004, -7.7630378360050551],
            [109.95463729461517, -7.7630016823429671],
            [109.9546920291606, -7.7625370609826394],
            [109.95469604942707, -7.7624968603684312],
            [109.95455411858021, -7.7624734107917366],
            [109.95456152409902, -7.7623586328281338],
            [109.95455905640105, -7.762319139802706],
            [109.95455288498849, -7.7622845830387872],
            [109.95455165093026, -7.7622537293486094],
            [109.95462940341312, -7.7620451542040305],
            [109.95470715629537, -7.7618279400177279],
            [109.9546972827975, -7.7617785733280655],
            [109.95469481384859, -7.7617403139265111],
            [109.95471332676944, -7.7616958836859657],
            [109.95473183928689, -7.7616699669134981],
            [109.9547466493346, -7.7616477509700745],
            [109.95476516200661, -7.761614428807655],
            [109.95490118088694, -7.7614192419915753],
            [109.95495840469758, -7.7613206760368403],
            [109.95502483884171, -7.7611353852773775],
            [109.9550820422362, -7.7610457910900479],
            [109.95511817069388, -7.7609890461038535],
            [109.9552432392112, -7.7608146682498518],
            [109.95531726560115, -7.7603726339728141],
            [109.95540852891172, -7.7599459574272043],
            [109.95541888133177, -7.7596396829502936],
            [109.95543254941609, -7.7595459127880133],
            [109.95545559133015, -7.759498976607607]
          ]
        ]
      },
      "properties": {
        "OBJECTID": 7,
        "Nama": "Dusun Karangwaru",
        "Shape_Length": 1739.8439538209966,
        "Shape_Area": 104968.69137791796
      }
    }
  ]
}
