{
  "type": "FeatureCollection",
  "features": [
    {
      "type": "Feature",
      "id": 1,
      "geometry": {
        "type": "Polygon",
        "coordinates": [
          [
            [109.95687034659987, -7.7550645906746896],
            [109.95672947764822, -7.755031341714556],
            [109.95664258187053, -7.7550012168319764],
            [109.95655864055198, -7.7549890455904222],
            [109.95616880907524, -7.754976127042478],
            [109.95573889994769, -7.7549935128122947],
            [109.95563592695083, -7.7550513917890402],
            [109.95551731559513, -7.7550729578804996],
            [109.95531119980595, -7.7550549741468551],
            [109.95516028256415, -7.7550418070889044],
            [109.95497772222595, -7.7550130542047189],
            [109.95489715680081, -7.7550148823063454],
            [109.95485398718975, -7.7550182664694036],
            [109.95483042407419, -7.7550681651543423],
            [109.95482428994029, -7.7550842677605845],
            [109.95480511958783, -7.7551141723643084],
            [109.9547874842408, -7.7553388394303848],
            [109.95471770722543, -7.7553587751445248],
            [109.95443859900224, -7.7552652283231733],
            [109.95422006597207, -7.7552391569817196],
            [109.95412393059938, -7.7552478790542656],
            [109.95403167763911, -7.7552622569373648],
            [109.9539142654113, -7.7553041903281743],
            [109.95383998318563, -7.7553437271621233],
            [109.95378726640929, -7.7553616986456175],
            [109.95275529288962, -7.7553757397696437],
            [109.952471834684, -7.7553939491464945],
            [109.95247852127409, -7.7554969147453994],
            [109.95247845706348, -7.7555232368061953],
            [109.95250235940466, -7.7555591902236554],
            [109.95253825822967, -7.7555951722588148],
            [109.95255015226329, -7.7556358814049826],
            [109.95255005754753, -7.7556741697628588],
            [109.95254276676283, -7.7557124376980866],
            [109.95251624608412, -7.7557650168681063],
            [109.95244405176852, -7.7558533782155541],
            [109.95241411769788, -7.7558796864486528],
            [109.95238418271458, -7.7559059955812826],
            [109.95234591172627, -7.7559561536244797],
            [109.95234146582186, -7.7560078311439513],
            [109.95237515856873, -7.7560624731690604],
            [109.95242112892521, -7.7560999153216779],
            [109.95247718862716, -7.7561330772673518],
            [109.95250948144177, -7.7561719210614388],
            [109.95249284313111, -7.7562049022669042],
            [109.95246691283234, -7.756213453942963],
            [109.95240642588688, -7.7562247911855939],
            [109.95229841759469, -7.7562431898129818],
            [109.95221056304391, -7.7562616389337098],
            [109.95212989035794, -7.7562858487796369],
            [109.95205923859024, -7.7563330546251992],
            [109.95197847968319, -7.756391722595132],
            [109.95191065354652, -7.7564604723011499],
            [109.95184272075007, -7.7565722955928535],
            [109.95179208222149, -7.7566755450651224],
            [109.95175246260875, -7.7567484539914986],
            [109.95170682925287, -7.7568059910637484],
            [109.95166499469855, -7.7568417816882622],
            [109.95162461785492, -7.7568703984296326],
            [109.95158707732305, -7.7569162504310452],
            [109.95146407303147, -7.7572259215949861],
            [109.95140619818466, -7.757344948841661],
            [109.95137301465464, -7.7573735832753767],
            [109.95134274581613, -7.7573907369599064],
            [109.95129954682322, -7.7573963735614218],
            [109.95122754731142, -7.7574062478292038],
            [109.95115843390349, -7.7574132549548569],
            [109.95106482376794, -7.7574302533963095],
            [109.95097408640304, -7.7574501304277712],
            [109.95082000334953, -7.7574727227894877],
            [109.95075954111616, -7.7574740099279911],
            [109.95072737955883, -7.7574791952468063],
            [109.95072478333545, -7.7575586347933436],
            [109.95072603375996, -7.7576347329534254],
            [109.95072589496493, -7.7576907278864011],
            [109.95071642861693, -7.7577352127966117],
            [109.95069476103015, -7.7577653099719175],
            [109.95065803457081, -7.757772398679859],
            [109.95059612704546, -7.7577765537545131],
            [109.95056011078746, -7.7577879510467653],
            [109.95053529101797, -7.75792859566823],
            [109.95052644759704, -7.7580118482027283],
            [109.9505155732982, -7.7583334326446733],
            [109.9504951311004, -7.7584496814113377],
            [109.95048352258121, -7.7584869808461372],
            [109.95046189234615, -7.7585027213526736],
            [109.95026762408699, -7.7584763992445014],
            [109.9501647719005, -7.7584469499427478],
            [109.95015398778172, -7.7584421380553454],
            [109.95013241864046, -7.7584325133731777],
            [109.95010847484285, -7.7584133095606687],
            [109.95009894379871, -7.7583869647507804],
            [109.95008221483204, -7.758360600370569],
            [109.95003667816249, -7.7583413441765616],
            [109.949880814342, -7.7583074589617471],
            [109.94970330103058, -7.7582974484503531],
            [109.94968107965164, -7.7585510458716751],
            [109.94983701890017, -7.7585538238836884],
            [109.9498428571971, -7.7591018226944097],
            [109.94982117521862, -7.7591376637316616],
            [109.94977664144312, -7.7596807519932973],
            [109.94976166538899, -7.7599152225588481],
            [109.94974194913885, -7.7601257541247346],
            [109.94973696136222, -7.7602023161964668],
            [109.94973169444231, -7.7603913474225132],
            [109.94970529597877, -7.7603936744293165],
            [109.94968126895269, -7.76040797183955],
            [109.94966438642821, -7.7604438247067522],
            [109.94967379274239, -7.7605204214120587],
            [109.94967365018876, -7.7605778534303642],
            [109.9496663215551, -7.7606304788093841],
            [109.94964694465983, -7.7607046122538499],
            [109.9496351389481, -7.7607727020768458],
            [109.94964507958535, -7.7608272856562417],
            [109.94968231512544, -7.7609049088602537],
            [109.9497224358991, -7.7609796703720786],
            [109.94974335155341, -7.7610480354441744],
            [109.94973319707663, -7.7610795971791164],
            [109.94974029882746, -7.7611183807960664],
            [109.94974163362095, -7.7611600217010288],
            [109.94972861885631, -7.7611843980046293],
            [109.94960890786717, -7.761277426591878],
            [109.94957162554894, -7.7613289487617836],
            [109.94953562037834, -7.7614193857708047],
            [109.94942002531967, -7.7615937859145694],
            [109.94937201863669, -7.7616032387858516],
            [109.94927612230352, -7.761574286610335],
            [109.94924014609525, -7.7615694133585542],
            [109.94918018438392, -7.7615620850399711],
            [109.94909618961246, -7.7615714498669641],
            [109.94901883625478, -7.7615829429045897],
            [109.94885858160654, -7.7616067563332081],
            [109.94877503041035, -7.761641236069754],
            [109.94843520131944, -7.7617814779430025],
            [109.9483280930399, -7.7618184154266228],
            [109.94815644601904, -7.7618759406131934],
            [109.94785493338244, -7.7619225356456125],
            [109.94779012540364, -7.7619343398522771],
            [109.94771683405348, -7.7619379326520725],
            [109.94752099825205, -7.7619817247283507],
            [109.94749009065607, -7.7619886357697734],
            [109.94720428419166, -7.7621099677472412],
            [109.94720792979813, -7.762196918429316],
            [109.94722013772342, -7.7624880933142482],
            [109.94717596328279, -7.7624992466651364],
            [109.94717261515287, -7.7625000921462721],
            [109.94684541390136, -7.762582713566581],
            [109.9468072161703, -7.7625923604477549],
            [109.94652154023854, -7.7626610478834461],
            [109.94624474059736, -7.7626617141833885],
            [109.94603210072665, -7.7626622273002903],
            [109.94602748688101, -7.7625880346635725],
            [109.94570277135281, -7.7625926273154189],
            [109.94559561588591, -7.7625941433439909],
            [109.94558104784907, -7.7626635022391719],
            [109.94559732455558, -7.7631295425765465],
            [109.94584023641937, -7.7631331357418532],
            [109.94583999698028, -7.7632288532281182],
            [109.94586383942301, -7.7632887359086231],
            [109.9458667188742, -7.7633366011824929],
            [109.94588163972031, -7.7633665499587066],
            [109.94589277081432, -7.7637135535573121],
            [109.94592864723613, -7.7637585106296756],
            [109.94594329139021, -7.7638991331455163],
            [109.9459461550294, -7.7639529810991892],
            [109.94594899156812, -7.7640187953282958],
            [109.94593075054755, -7.7641174554756374],
            [109.94593200620965, -7.7641233716675364],
            [109.94586531360743, -7.7641628125547921],
            [109.94591946525306, -7.7643722913273843],
            [109.94597243462466, -7.7643139168105639],
            [109.94610490446517, -7.7649382613539295],
            [109.94612620157369, -7.7650567638487082],
            [109.94620123078799, -7.7652759047010056],
            [109.94623689626494, -7.7654052117063754],
            [109.94624387964491, -7.7654913747480334],
            [109.94623086728166, -7.7655604960341531],
            [109.94622564395074, -7.7655882441694724],
            [109.9461895670148, -7.7656240483384114],
            [109.94616398118863, -7.7657819187452537],
            [109.94613145761508, -7.7658356798721835],
            [109.94608752058959, -7.7661370809784476],
            [109.9463381890091, -7.7661574440277406],
            [109.94632603572661, -7.7662202301927969],
            [109.94660176594071, -7.7662927017147867],
            [109.94649592824244, -7.7666424072466418],
            [109.94644434798489, -7.7668815727940661],
            [109.94708889776346, -7.7669788872039165],
            [109.94737975200496, -7.7657951012047359],
            [109.94778149204268, -7.7658469457950998],
            [109.94777195902458, -7.766062288431999],
            [109.94773825562918, -7.7663493566575399],
            [109.94770767563313, -7.766585585347701],
            [109.94765306934414, -7.7668367090847976],
            [109.94752923056429, -7.7671893612986027],
            [109.94734528639232, -7.7675927136309006],
            [109.94724568557602, -7.7678467176188972],
            [109.94706165700981, -7.7682829731376852],
            [109.94698460218972, -7.7684758915611427],
            [109.94734115769005, -7.7686083875758953],
            [109.94738319599772, -7.7685875553552464],
            [109.94766040234028, -7.7680677750417022],
            [109.94792099705506, -7.7681970410996781],
            [109.94788776059113, -7.7682956678415982],
            [109.94863925698087, -7.7685628468201369],
            [109.94880257283585, -7.7680128728735642],
            [109.94908428745087, -7.7680913396102014],
            [109.94914450585119, -7.7679957712703755],
            [109.94929436687231, -7.7680320354495098],
            [109.94882879924532, -7.76952647355888],
            [109.94861646081512, -7.7702186931813477],
            [109.94888485728336, -7.7702842130918857],
            [109.94898974136046, -7.770317375288621],
            [109.94903464929732, -7.7703488931917839],
            [109.94904355261491, -7.7703863065578727],
            [109.94899742582935, -7.7705732414029027],
            [109.94914279006144, -7.7706160398958959],
            [109.94920771674698, -7.7706442003623728],
            [109.9491749281303, -7.7707166228121807],
            [109.94908807482821, -7.7709102364387626],
            [109.94904450485734, -7.771064474765824],
            [109.9491615084177, -7.7710965897676658],
            [109.94912822426642, -7.771262871449804],
            [109.94924572219638, -7.7712829118736666],
            [109.94930156072382, -7.7712947811926005],
            [109.94929712986597, -7.7715118594320218],
            [109.94929500366509, -7.7715959993898824],
            [109.9492967589493, -7.7716610259399426],
            [109.94930336643674, -7.7717031167011177],
            [109.94930996973424, -7.7717461634214544],
            [109.9493271342602, -7.7717834968304587],
            [109.94935288178591, -7.7718390203169863],
            [109.94942944498423, -7.771893714423924],
            [109.94957780007468, -7.7719935265861784],
            [109.94970979461888, -7.7720386488033073],
            [109.94979563567696, -7.7718148684052526],
            [109.94986262631568, -7.7716402281409103],
            [109.94991474222944, -7.771504057583579],
            [109.94994973788499, -7.7714145153729648],
            [109.94996680721097, -7.7713865432217331],
            [109.95001740683182, -7.7713193651299841],
            [109.95006302980997, -7.7712865326634057],
            [109.95017421110585, -7.7711897489274868],
            [109.95022807307514, -7.7711420238521933],
            [109.95035303339884, -7.7710619298718413],
            [109.95038572444567, -7.77103712377468],
            [109.95040377742772, -7.7710132392864342],
            [109.95040979439004, -7.7709251168030669],
            [109.95033627186878, -7.7708703562277179],
            [109.95033018728613, -7.7708637642654201],
            [109.95036568133126, -7.7707841582633232],
            [109.95038342727193, -7.7707765516366196],
            [109.9503981322521, -7.7707735102336351],
            [109.95046889404982, -7.7708094520805604],
            [109.95048245413925, -7.7707795963717325],
            [109.95056667863362, -7.7706397679547239],
            [109.95060144557338, -7.7705907502624143],
            [109.95062887218353, -7.7705599004751411],
            [109.9507965447328, -7.7706100503720679],
            [109.95086616754226, -7.7704604606060013],
            [109.95093041931828, -7.7702860312776547],
            [109.95097815335671, -7.770155206563869],
            [109.95102030382307, -7.7700698358744367],
            [109.95110273240179, -7.769919092872656],
            [109.95116500787917, -7.7698064900656041],
            [109.95135900289357, -7.7695196252435217],
            [109.95148528777418, -7.769330797682402],
            [109.95155668805157, -7.7692145806402761],
            [109.95163173360898, -7.769100193168696],
            [109.95167197005685, -7.7690511879427619],
            [109.95174688836224, -7.7689877216044803],
            [109.95183455621404, -7.768929740343693],
            [109.95191121956293, -7.7688971940147828],
            [109.95200063969627, -7.7688683158002236],
            [109.95205172634202, -7.7688557111970846],
            [109.95212107470431, -7.7688322407154038],
            [109.95217219289704, -7.7688069073864057],
            [109.95231087156992, -7.7687672369447567],
            [109.95234555519463, -7.7687509551928171],
            [109.95244514520385, -7.7687208990730356],
            [109.95256398415987, -7.7685314992296775],
            [109.95245131163169, -7.7684815064946839],
            [109.95225897827105, -7.7683805468824483],
            [109.95226811592698, -7.7683615739059544],
            [109.95239695540977, -7.7680373408804568],
            [109.95257937989579, -7.7677555612284452],
            [109.95267029008694, -7.7675485982968775],
            [109.95278440862202, -7.7673010162791556],
            [109.9527844087353, -7.7671636847933208],
            [109.95267996054841, -7.7670824466642241],
            [109.95273758909099, -7.7669997086251223],
            [109.95277086419705, -7.7670076310215563],
            [109.95280661436105, -7.7669432602664648],
            [109.95283384812865, -7.7669073604336791],
            [109.95283384800528, -7.766833085934234],
            [109.95283261140236, -7.7667996618952397],
            [109.95283137307098, -7.7667724276950656],
            [109.95282765927995, -7.7667513835700568],
            [109.95281899396845, -7.7667253882141063],
            [109.95274843285969, -7.7666634922963045],
            [109.95273110207846, -7.7666251167043496],
            [109.95269644043833, -7.7665421765806686],
            [109.9525862657412, -7.7663812477498331],
            [109.9525491294438, -7.766334207854781],
            [109.95252065713726, -7.7663243048491424],
            [109.95250208759123, -7.7663317323004284],
            [109.95248723434298, -7.7663317318731497],
            [109.95245999855469, -7.7663230673470398],
            [109.95235725339857, -7.7662785021240266],
            [109.95205767904878, -7.7661472831719571],
            [109.95209233957847, -7.7659913066448025],
            [109.95212947663831, -7.7658737052767775],
            [109.95204034841188, -7.7657598173062787],
            [109.95205396476787, -7.7656273607629753],
            [109.95206634395772, -7.7656026029707599],
            [109.95206100506384, -7.765347437902717],
            [109.95205713709248, -7.7652159095998323],
            [109.95207872287904, -7.7651520032182857],
            [109.95207624724662, -7.7650294501802648],
            [109.95212947704933, -7.7649180376071447],
            [109.9522186068245, -7.7647150208077766],
            [109.95227307514537, -7.7646395076415606],
            [109.95230402291348, -7.7645714232843117],
            [109.95240800694864, -7.7643671677947399],
            [109.95251570489883, -7.7641765302063046],
            [109.95261350042573, -7.7640094120176686],
            [109.95262587873835, -7.7639549440312416],
            [109.95266920591465, -7.7639549440369668],
            [109.95268653662879, -7.7639314229936875],
            [109.95270386844149, -7.7637964910970387],
            [109.952748432622, -7.7637209787688404],
            [109.9527546220345, -7.7636504176745094],
            [109.95278680763239, -7.7634511141493387],
            [109.9530158206846, -7.7634845383606512],
            [109.95305791015346, -7.76349072692613],
            [109.95318293898623, -7.7635092958777898],
            [109.95328398753284, -7.7632513347670349],
            [109.9533132742469, -7.7630504005936674],
            [109.95338086562026, -7.7628830612834934],
            [109.95339553307221, -7.7627730214218822],
            [109.9534677927973, -7.7626583371073758],
            [109.95350631059503, -7.7626057865543281],
            [109.95356870244905, -7.762601154804063],
            [109.95359747992069, -7.7626060127071552],
            [109.95365024985264, -7.7626109278339301],
            [109.95370297243899, -7.7626349866818689],
            [109.95376047093588, -7.7626686305528647],
            [109.95382276630714, -7.7627022844093618],
            [109.95390906689529, -7.7627312111226576],
            [109.95409128459387, -7.7627795166824916],
            [109.95418532882324, -7.7628691019057046],
            [109.95432995772552, -7.7630046918011946],
            [109.95456498073004, -7.7630378360050551],
            [109.95463729462411, -7.7630016787253187],
            [109.95469202644027, -7.7625370609759505],
            [109.95469604942707, -7.7624968603684312],
            [109.95455411858021, -7.7624734107917366],
            [109.95456152409902, -7.7623586328281338],
            [109.95455905640105, -7.762319139802706],
            [109.95455288498849, -7.7622845830387872],
            [109.95455165093026, -7.7622537293486094],
            [109.95462940341312, -7.7620451542040305],
            [109.95470715629537, -7.7618279400177279],
            [109.9546972827975, -7.7617785733280655],
            [109.95469481384859, -7.7617403139265111],
            [109.95471332676944, -7.7616958836859657],
            [109.95473183928689, -7.7616699669134981],
            [109.9547466493346, -7.7616477509700745],
            [109.95476516200661, -7.761614428807655],
            [109.95490118179372, -7.7614192419938011],
            [109.95495840469758, -7.7613206760368403],
            [109.95502483884171, -7.7611353852773775],
            [109.9550820422362, -7.7610457910900479],
            [109.95511817069388, -7.7609890461038535],
            [109.9552432392112, -7.7608146682498518],
            [109.95531726560115, -7.7603726339728141],
            [109.95540852891172, -7.7599459574272043],
            [109.95541888133177, -7.7596396829502936],
            [109.95543254941609, -7.7595459127880133],
            [109.95545559132792, -7.7594989775120178],
            [109.95546237184742, -7.7594851646746816],
            [109.95546508405197, -7.7594796408058704],
            [109.95549425302045, -7.7594202269127797],
            [109.95538571340924, -7.7592747955869958],
            [109.95563331291885, -7.7590791823128225],
            [109.95576181862521, -7.759218850785226],
            [109.95583827168369, -7.7591541906085935],
            [109.95587856639899, -7.7591151272077905],
            [109.95588427279367, -7.7591095953083578],
            [109.95595253042315, -7.759058143945829],
            [109.95597627524118, -7.7590350047433745],
            [109.95599104405413, -7.7590206136750677],
            [109.95601866559146, -7.7589936962711734],
            [109.95620380731376, -7.7588302334217039],
            [109.95624199669399, -7.7587954752790571],
            [109.95646607026943, -7.7585917254316197],
            [109.95655236200388, -7.7585254431814619],
            [109.95671469210667, -7.7584007553969103],
            [109.95669132245258, -7.7583622186258578],
            [109.95722502759271, -7.757872135405413],
            [109.95726692067245, -7.7578945591668322],
            [109.95735074811631, -7.7579292781744229],
            [109.95745597899928, -7.7579669826448496],
            [109.95751914439371, -7.7576347257526752],
            [109.95758837077702, -7.7574445129923042],
            [109.95768584741757, -7.7571766751496449],
            [109.95769097505652, -7.7570426824110079],
            [109.95775002755671, -7.7564445898284902],
            [109.95734947431099, -7.7564005347618883],
            [109.95735970205564, -7.7561445147246904],
            [109.9573465948489, -7.7559665921226042],
            [109.95734577267254, -7.7559554376977307],
            [109.95732540980335, -7.7557807016829186],
            [109.9572169398029, -7.755788555831522],
            [109.95720295756962, -7.7550973705827735],
            [109.95701126624614, -7.7550769005702689],
            [109.95687034659987, -7.7550645906746896]
          ]
        ]
      },
      "properties": {
        "OBJECTID": 1,
        "NAMOBJ": "Kliwonan",
        "FCODE": "BA03070040",
        "REMARK": "Wilayah Administrasi Kelurahan/Desa",
        "METADATA": "TASWIL1000020221227_DATA_BATAS_DESAKELURAHAN",
        "SRS_ID": "SRGI 2013",
        "KDBBPS": "3306",
        "KDCBPS": "3306070",
        "KDCPUM": "33.06.07",
        "KDEBPS": "3306070015",
        "KDEPUM": "33.06.07.2015",
        "KDPBPS": "33",
        "KDPKAB": "33.06",
        "KDPPUM": "33",
        "LUASWH": 0,
        "TIPADM": 1,
        "WADMKC": "Banyuurip",
        "WADMKD": "Kliwonan",
        "WADMKK": "Purworejo",
        "WADMPR": "Jawa Tengah",
        "WIADKC": " ",
        "WIADKK": " ",
        "WIADPR": " ",
        "WIADKD": " ",
        "UUPP": "Hasil Delineasi Batas Desa 2017",
        "luas": 1.01302609663,
        "SHAPE_Leng": 0.060661388788400002,
        "Shape_Length": 6774.025146431959,
        "Shape_Area": 1053242.1193153411
      }
    }
  ]
}
