{
  "type": "FeatureCollection",
  "features": [
    {
      "type": "Feature",
      "id": 0,
      "geometry": {
        "type": "Polygon",
        "coordinates": [
          [
            [109.95247183800006, -7.7553939489999415],
            [109.95247852100005, -7.7554969149999788],
            [109.95247845700004, -7.75552323699997],
            [109.95250235900005, -7.7555591899999365],
            [109.95253825800006, -7.755595171999965],
            [109.95255015200007, -7.7556358809999262],
            [109.95255005800004, -7.7556741699999678],
            [109.95254276700007, -7.7557124379999305],
            [109.95251624600007, -7.7557650169999226],
            [109.95244405200003, -7.7558533779999204],
            [109.95241411800004, -7.7558796859999592],
            [109.95238418300005, -7.755905995999969],
            [109.95234591200006, -7.7559561539999287],
            [109.95234146600006, -7.7560078309999847],
            [109.95237515900004, -7.7560624729999255],
            [109.95242112900007, -7.7560999149999343],
            [109.95247718900004, -7.7561330769999612],
            [109.95250948100005, -7.7561719209999751],
            [109.95249284300007, -7.7562049019999737],
            [109.95246691300008, -7.7562134539999761],
            [109.95240642600004, -7.7562247909999593],
            [109.95229841800005, -7.7562431899999602],
            [109.95221056300005, -7.7562616389999421],
            [109.95212989000004, -7.7562858489999273],
            [109.95205923900005, -7.7563330549999741],
            [109.95197848000004, -7.7563917229999833],
            [109.95191065400007, -7.7564604719999641],
            [109.95184272100005, -7.7565722959999501],
            [109.95179208200005, -7.7566755449999558],
            [109.95175246300005, -7.7567484539999416],
            [109.95170682900005, -7.75680599099997],
            [109.95166499500004, -7.7568417819999835],
            [109.95162461800004, -7.7568703979999265],
            [109.95158707700006, -7.7569162499999633],
            [109.95146407300007, -7.7572259219999742],
            [109.95140619800009, -7.7573449489999629],
            [109.95137301500006, -7.7573735829999508],
            [109.95134274600008, -7.7573907369999819],
            [109.95129954700008, -7.7573963739999412],
            [109.95122754700009, -7.7574062479999473],
            [109.95115843400004, -7.7574132549999577],
            [109.95106482400007, -7.7574302529999342],
            [109.95097408600009, -7.7574501299999312],
            [109.95082000300005, -7.7574727229999763],
            [109.95075954100008, -7.7574740099999575],
            [109.95072738000005, -7.7574791949999682],
            [109.95072478300006, -7.7575586349999597],
            [109.95072603400007, -7.7576347329999731],
            [109.95072589500006, -7.7576907279999467],
            [109.95071642900007, -7.7577352129999273],
            [109.95069476100008, -7.7577653099999742],
            [109.95065803500006, -7.7577723989999834],
            [109.95059612700004, -7.7577765539999666],
            [109.95056011100007, -7.7577879509999539],
            [109.95053529100005, -7.7579285959999362],
            [109.95052644800006, -7.7580118479999678],
            [109.95051557300008, -7.7583334329999634],
            [109.95049513100008, -7.7584496809999433],
            [109.95048352300006, -7.7584869809999812],
            [109.95046189200008, -7.7585027209999531],
            [109.95026762400005, -7.7584763989999521],
            [109.95016477200005, -7.7584469499999518],
            [109.95015398800007, -7.7584421379999702],
            [109.95013241900006, -7.7584325129999483],
            [109.95010847500004, -7.758413309999983],
            [109.95009894400005, -7.758386964999942],
            [109.95008221500007, -7.7583605999999472],
            [109.95003667800006, -7.7583413439999678],
            [109.94988081400004, -7.758307458999985],
            [109.94970330100006, -7.7582974479999445],
            [109.94968108000006, -7.7585510459999769],
            [109.94983701900009, -7.7585538239999376],
            [109.94984285700008, -7.7591018229999831],
            [109.94982117500007, -7.7591376639999874],
            [109.94977664100008, -7.7596807519999542],
            [109.94976166500004, -7.759915222999946],
            [109.94974194900004, -7.76012575399995],
            [109.94973696100004, -7.7602023159999405],
            [109.94973169400004, -7.7603913469999304],
            [109.94970529600005, -7.7603936739999453],
            [109.94968126900005, -7.7604079719999417],
            [109.94966438600005, -7.7604438249999816],
            [109.94967379300004, -7.760520420999967],
            [109.94967365000008, -7.7605778529999698],
            [109.94966632200004, -7.7606304789999365],
            [109.94964694500004, -7.760704611999925],
            [109.94963513900007, -7.7607727019999366],
            [109.94964508000004, -7.7608272859999321],
            [109.94968231500008, -7.7609049089999678],
            [109.94972243600006, -7.7609796699999274],
            [109.94974335200004, -7.7610480349999342],
            [109.94973319700006, -7.7610795969999371],
            [109.94974029900004, -7.7611183809999611],
            [109.94974163400008, -7.761160021999955],
            [109.94972861900004, -7.7611843979999477],
            [109.94960890800007, -7.7612774269999321],
            [109.94957162600008, -7.7613289489999566],
            [109.94953562000006, -7.7614193859999361],
            [109.94942002500005, -7.761593785999934],
            [109.94937201900007, -7.7616032389999541],
            [109.94927612200007, -7.7615742869999789],
            [109.94924014600008, -7.7615694129999531],
            [109.94918018400006, -7.7615620849999729],
            [109.94909619000003, -7.7615714499999626],
            [109.94901883600005, -7.761582942999949],
            [109.94885858200007, -7.7616067559999387],
            [109.94877503000004, -7.7616412359999414],
            [109.94843520100005, -7.7617814779999277],
            [109.94832809300004, -7.7618184149999303],
            [109.94815644600004, -7.7618759409999658],
            [109.94785493300009, -7.7619225359999326],
            [109.94779012500004, -7.7619343399999261],
            [109.94771683400006, -7.7619379329999489],
            [109.94752099800007, -7.7619817249999414],
            [109.94749009100008, -7.7619886359999493],
            [109.94720428400007, -7.7621099679999457],
            [109.94720793000005, -7.7621969179999724],
            [109.94722013800003, -7.7624880929999431],
            [109.94717596300006, -7.7624992469999423],
            [109.94717261500006, -7.7625000919999225],
            [109.94684541400005, -7.7625827139999535],
            [109.94680721600008, -7.7625923599999345],
            [109.94652154000005, -7.7626610479999192],
            [109.94624474100004, -7.762661713999937],
            [109.94603210100007, -7.7626622269999617],
            [109.94602748700004, -7.7625880349999656],
            [109.94570277100007, -7.7625926269999415],
            [109.94559561600005, -7.7625941429999408],
            [109.94558104800007, -7.7626635019999615],
            [109.94559732500005, -7.7631295429999314],
            [109.94584023600004, -7.7631331359999729],
            [109.94583999700006, -7.7632288529999371],
            [109.94586383900008, -7.7632887359999403],
            [109.94586671900004, -7.7633366009999403],
            [109.94588164000004, -7.7633665499999509],
            [109.94589277100005, -7.7637135539999305],
            [109.94592864700007, -7.7637585109999394],
            [109.94594329100005, -7.7638991329999412],
            [109.94594615500006, -7.7639529809999264],
            [109.94594899200007, -7.7640187949999753],
            [109.94593075100005, -7.7641174569999487],
            [109.94602998800008, -7.7642883699999725],
            [109.94604182400008, -7.7643151129999568],
            [109.94606381900007, -7.7643648099999645],
            [109.94617862600006, -7.7648924989999273],
            [109.94610490400004, -7.764938259999953],
            [109.94612620200007, -7.7650567639999482],
            [109.94620123100009, -7.7652759049999585],
            [109.94623689600007, -7.7654052119999548],
            [109.94624388000005, -7.7654913749999555],
            [109.94623086700005, -7.7655604959999813],
            [109.94622564400004, -7.7655882439999546],
            [109.94618956700003, -7.7656240479999541],
            [109.94616398100004, -7.7657819189999531],
            [109.94613145800008, -7.7658356799999577],
            [109.94608752100004, -7.7661370809999513],
            [109.94633818900007, -7.7661574439999228],
            [109.94632603600007, -7.7662202299999317],
            [109.94660176600007, -7.7662927019999382],
            [109.94649592800005, -7.7666424069999547],
            [109.94644434800006, -7.7668815729999814],
            [109.94708889800006, -7.7669788869999392],
            [109.94737975200007, -7.7657951009999771],
            [109.94778149200005, -7.7658469459999591],
            [109.94777195900008, -7.7660622879999384],
            [109.94773825600004, -7.7663493569999593],
            [109.94770767600005, -7.7665855849999792],
            [109.94765306900007, -7.7668367089999677],
            [109.94752923100003, -7.7671893609999723],
            [109.94734528600009, -7.7675927139999352],
            [109.94724568600009, -7.7678467179999258],
            [109.94706165700006, -7.7682829729999465],
            [109.94698460200004, -7.7684758919999668],
            [109.94734115800009, -7.7686083879999543],
            [109.94738319600003, -7.7685875549999519],
            [109.94766040200005, -7.7680677749999578],
            [109.94792099700004, -7.7681970409999499],
            [109.94788776100006, -7.7682956679999533],
            [109.94863925700008, -7.7685628469999326],
            [109.94880257300008, -7.7680128729999804],
            [109.94908428700006, -7.7680913399999492],
            [109.94914450600004, -7.7679957709999581],
            [109.94929436700005, -7.7680320349999841],
            [109.94882879900007, -7.7695264739999779],
            [109.94861646100009, -7.770218692999955],
            [109.94888485700005, -7.7702842129999645],
            [109.94898974100005, -7.7703173749999301],
            [109.94903464900005, -7.7703488929999489],
            [109.94904355300008, -7.7703863069999741],
            [109.94899742600006, -7.7705732409999628],
            [109.94914279000005, -7.770616039999938],
            [109.94920771700004, -7.7706441999999321],
            [109.94917492800005, -7.7707166229999443],
            [109.94908807500008, -7.7709102359999607],
            [109.94904450500007, -7.7710644749999496],
            [109.94916150800009, -7.7710965899999529],
            [109.94912822400005, -7.7712628709999789],
            [109.94924572200006, -7.7712829119999469],
            [109.94930156100008, -7.7712947809999413],
            [109.94929713000005, -7.7715118589999284],
            [109.94929500400008, -7.7715959989999499],
            [109.94929675900005, -7.7716610259999541],
            [109.94930336600004, -7.7717031169999498],
            [109.94930997000006, -7.771746162999932],
            [109.94932713400004, -7.7717834969999453],
            [109.94935288200008, -7.7718390199999661],
            [109.94942944500008, -7.7718937139999307],
            [109.94957780000004, -7.7719935269999505],
            [109.94970979500005, -7.7720386489999678],
            [109.94979563600003, -7.771814867999975],
            [109.94986262600008, -7.7716402279999688],
            [109.94991474200003, -7.7715040579999517],
            [109.94994973800004, -7.7714145149999556],
            [109.94996680700007, -7.7713865429999389],
            [109.95001740700008, -7.7713193649999601],
            [109.95006303000008, -7.7712865329999739],
            [109.95017421100005, -7.7711897489999666],
            [109.95022807300006, -7.7711420239999667],
            [109.95035303300006, -7.7710619299999806],
            [109.95038572400006, -7.7710371239999727],
            [109.95040883300004, -7.7710065509999744],
            [109.95042051600007, -7.770939578999962],
            [109.95044945200004, -7.770852258999974],
            [109.95048245400005, -7.7707795959999482],
            [109.95056667900008, -7.7706397679999686],
            [109.95060144600006, -7.770590749999946],
            [109.95062887400007, -7.7705599009999533],
            [109.95067080300004, -7.7705636419999529],
            [109.95071272400008, -7.7705710199999842],
            [109.95075646800007, -7.7705784039999335],
            [109.95078851200009, -7.7705860409999472],
            [109.95081309800008, -7.7705367149999356],
            [109.95086616700007, -7.77046046199996],
            [109.95093041900009, -7.7702860309999524],
            [109.95097815300005, -7.7701552069999602],
            [109.95102030400005, -7.7700698359999558],
            [109.95110273200004, -7.7699190929999462],
            [109.95116500800009, -7.7698064899999491],
            [109.95135900300005, -7.769519624999937],
            [109.95148528800007, -7.7693307979999373],
            [109.95155668800004, -7.7692145809999671],
            [109.95163173400005, -7.7691001929999359],
            [109.95167197000006, -7.769051187999934],
            [109.95174688800006, -7.7689877219999586],
            [109.95183455600005, -7.7689297399999768],
            [109.95191122000006, -7.7688971939999751],
            [109.95200064000005, -7.768868315999959],
            [109.95205172600004, -7.7688557109999525],
            [109.95212107500004, -7.7688322409999229],
            [109.95217219300008, -7.7688069069999415],
            [109.95231087200006, -7.7687672369999596],
            [109.95234555700006, -7.768750954999966],
            [109.95237488400005, -7.7686891929999424],
            [109.95245686800007, -7.7684664039999829],
            [109.95236645700004, -7.7684109219999264],
            [109.95226811500004, -7.7683615769999506],
            [109.95239695600009, -7.7680373399999683],
            [109.95209066000007, -7.7678914329999271],
            [109.95213174200006, -7.7678024649999298],
            [109.95203685900009, -7.7677516199999532],
            [109.95207067300004, -7.7676643109999812],
            [109.95218821000009, -7.7673417719999502],
            [109.95219990300006, -7.7673167069999636],
            [109.95208583000004, -7.7672804699999434],
            [109.95176029900006, -7.7671995329999373],
            [109.95146359000006, -7.7671210299999451],
            [109.95133912800009, -7.7670873779999283],
            [109.95133489200003, -7.7670160229999361],
            [109.95135002900008, -7.7669592259999183],
            [109.95138027100006, -7.7668576019999538],
            [109.95144064400006, -7.7666992179999275],
            [109.95147689900006, -7.7665916239999371],
            [109.95148010600008, -7.7665078799999456],
            [109.95147444900005, -7.7663702699999213],
            [109.95148984400004, -7.7662087839999652],
            [109.95153833200004, -7.7660055039999616],
            [109.95157771300006, -7.7658470689999604],
            [109.95160817800007, -7.7656557079999482],
            [109.95177125100008, -7.7652014509999328],
            [109.95189108800008, -7.7647674259999393],
            [109.95197585500006, -7.7644469809999377],
            [109.95205328100008, -7.764183946999939],
            [109.95214038100005, -7.7638898289999299],
            [109.95225401600004, -7.7635383459999678],
            [109.95233790700007, -7.7632298279999699],
            [109.95234231300009, -7.7632300609999474],
            [109.95257624200008, -7.7632424149999801],
            [109.95264346100004, -7.7632258289999587],
            [109.95268429400005, -7.7632067859999578],
            [109.95268590100005, -7.763205368999941],
            [109.95272757500004, -7.7631686059999607],
            [109.95328398700008, -7.7632513359999376],
            [109.95331327400004, -7.763050400999929],
            [109.95338086600009, -7.7628830609999655],
            [109.95339553300005, -7.7627730209999273],
            [109.95346779300007, -7.7626583369999427],
            [109.95350631100007, -7.762605786999929],
            [109.95356870200004, -7.7626011549999738],
            [109.95359748000004, -7.7626060129999841],
            [109.95365025000007, -7.7626109279999573],
            [109.95370297200009, -7.7626349869999567],
            [109.95376047100007, -7.7626686309999329],
            [109.95382276600009, -7.7627022839999373],
            [109.95390906700004, -7.7627312109999549],
            [109.95409128500006, -7.7627795169999629],
            [109.95418532900004, -7.7628691019999714],
            [109.95432995800007, -7.7630046919999778],
            [109.95456498100003, -7.763037835999957],
            [109.95463729500005, -7.7630016789999576],
            [109.95469202600009, -7.7625370609999367],
            [109.95469604900006, -7.76249685999995],
            [109.95455411900008, -7.7624734109999736],
            [109.95456152400004, -7.7623586329999554],
            [109.95455905600005, -7.7623191399999305],
            [109.95455288500006, -7.7622845829999356],
            [109.95455165100009, -7.7622537289999487],
            [109.95462940300007, -7.7620451539999671],
            [109.95470715600004, -7.7618279399999368],
            [109.95469728300009, -7.7617785729999644],
            [109.95469481400005, -7.7617403139999457],
            [109.95471332700004, -7.7616958839999537],
            [109.95473183900003, -7.7616699669999241],
            [109.95474664900007, -7.7616477509999475],
            [109.95476516200006, -7.7616144289999554],
            [109.95490118200007, -7.7614192419999366],
            [109.95495840500007, -7.7613206759999667],
            [109.95502483900009, -7.7611353849999238],
            [109.95508204200007, -7.7610457909999653],
            [109.95511817100004, -7.7609890459999571],
            [109.95524323900008, -7.7608146679999761],
            [109.95531726600007, -7.7603726339999728],
            [109.95540852900007, -7.7599459569999523],
            [109.95541888100007, -7.7596396829999339],
            [109.95543254900008, -7.7595459129999602],
            [109.95545559100009, -7.7594989779999546],
            [109.95546237200006, -7.7594851649999503],
            [109.95546508400008, -7.7594796409999276],
            [109.95549425300004, -7.759420226999957],
            [109.95538571300006, -7.7592747959999491],
            [109.95563331300008, -7.759079181999935],
            [109.95576181900009, -7.7592188509999591],
            [109.95583827200005, -7.7591541909999338],
            [109.95587856600008, -7.7591151269999745],
            [109.95588427300004, -7.7591095949999245],
            [109.95595253000005, -7.7590581439999431],
            [109.95597627500007, -7.7590350049999373],
            [109.95599104400009, -7.7590206139999474],
            [109.95601866600003, -7.7589936959999442],
            [109.95620380700007, -7.7588302329999665],
            [109.95624199700006, -7.7587954749999444],
            [109.95646607000003, -7.7585917249999667],
            [109.95655236200008, -7.758525442999936],
            [109.95671469200005, -7.7584007549999701],
            [109.95669132200004, -7.7583622189999275],
            [109.95722502800004, -7.757872134999948],
            [109.95726692100004, -7.7578945589999657],
            [109.95735074800007, -7.7579292779999491],
            [109.95745597900009, -7.757966982999954],
            [109.95751914400006, -7.7576347259999379],
            [109.95758837100004, -7.7574445129999425],
            [109.95768584700005, -7.757176674999922],
            [109.95769097500005, -7.7570426819999581],
            [109.95775002800008, -7.7564445899999397],
            [109.95734947400007, -7.7564005349999521],
            [109.95735970200008, -7.7561445149999546],
            [109.95734659500005, -7.755966591999929],
            [109.95734577300004, -7.755955437999944],
            [109.95732541000007, -7.7557807019999734],
            [109.95721694000008, -7.7557885559999784],
            [109.95720295500007, -7.7550973699999357],
            [109.95701126600005, -7.7550769009999323],
            [109.95687034700006, -7.7550645909999583],
            [109.95672947800006, -7.7550313419999348],
            [109.95664258200009, -7.7550012169999807],
            [109.95655864100007, -7.7549890459999382],
            [109.95616880900008, -7.7549761269999582],
            [109.95573890000009, -7.7549935129999392],
            [109.95563592700006, -7.7550513919999258],
            [109.95551731600005, -7.7550729579999738],
            [109.95516028300005, -7.7550418069999472],
            [109.95497772000004, -7.7550130539999662],
            [109.95488946600005, -7.7549991549999531],
            [109.95485649400007, -7.7550129569999688],
            [109.95485398700004, -7.7550182669999792],
            [109.95483042400008, -7.7550681649999502],
            [109.95482429000003, -7.7550842679999645],
            [109.95480512000006, -7.7551141719999288],
            [109.95478748400006, -7.7553388389999283],
            [109.95471770700004, -7.7553587749999382],
            [109.95443859900007, -7.7552652279999252],
            [109.95422006600006, -7.7552391569999486],
            [109.95412393100008, -7.7552478789999588],
            [109.95403167800004, -7.7552622569999761],
            [109.95391426500004, -7.7553041899999444],
            [109.95383998300008, -7.7553437269999606],
            [109.95378726600006, -7.7553616989999297],
            [109.95275529300005, -7.7553757399999848],
            [109.95247183800006, -7.7553939489999415]
          ]
        ]
      },
      "properties": {
        "FID": 0,
        "NAMOBJ": "Kliwonan",
        "FCODE": "BA03070040",
        "REMARK": "Wilayah Administrasi Kelurahan/Desa",
        "METADATA": "TASWIL1000020221227_DATA_BATAS_DESAKELURAHAN",
        "SRS_ID": "SRGI 2013",
        "KDBBPS": "3306",
        "KDCBPS": "3306070",
        "KDCPUM": "33.06.07",
        "KDEBPS": "3306070015",
        "KDEPUM": "33.06.07.2015",
        "KDPBPS": "33",
        "KDPKAB": "33.06",
        "KDPPUM": "33",
        "LUASWH": 0,
        "TIPADM": 1,
        "WADMKC": "Banyuurip",
        "WADMKD": "Kliwonan",
        "WADMKK": "Purworejo",
        "WADMPR": "Jawa Tengah",
        "WIADKC": " ",
        "WIADKK": " ",
        "WIADPR": " ",
        "WIADKD": " ",
        "UUPP": "Hasil Delineasi Batas Desa 2017",
        "luas": 1.01302609663,
        "SHAPE_Leng": 0.060661388788400002,
        "SHAPE_Area": 101.470479884
      }
    }
  ]
}
