{"type":"FeatureCollection","features":[{"type":"Feature","id":1,"geometry":{"type":"LineString","coordinates":[[109.94993628687023,-7.7714489319194255],[109.94933574300011,-7.7713264369999706],[109.94930105923198,-7.7713193629934478]]},"properties":{"OBJECTID":1,"NAMOBJ":" ","FCODE":" ","REMARK":"Jalan Lokal","METADATA":"2017; RBI KSP SK 26.4 2021","SRS_ID":" ","ARHRJL":0,"AUTRJL":999,"FGSRJL":0,"JARRJL":0,"JPARJL":0,"KLLRJL":" ","KONRJL":0,"KPMSTR":0,"LKONOF":" ","LKSBSP":" ","LKSRTA":" ","LLHRRT":0,"LOCRJL":0,"LBRBHJ":0,"LBRJLN":0,"MATRJL":0,"MEDRJL":0,"SPCRJL":0,"STARJL":0,"TOLRJL":0,"UTKRJL":0,"VLCPRT":0,"WLYRJL":0,"TGL_SK":null,"JLNLYG":0,"KLSRJL":0,"SHAPE_Leng":0.0024775160330199998,"Nama":" ","Shape_Length":71.501573253839609}},{"type":"Feature","id":2,"geometry":{"type":"LineString","coordinates":[[109.94598363402177,-7.7643667008386092],[109.94604159900007,-7.7643153029999326],[109.94636441000007,-7.7640418959999877],[109.94676003300009,-7.7636989869999482],[109.94689621000002,-7.7636096149999529],[109.94703582500006,-7.7635179849999432],[109.94721022500006,-7.7634035259999354],[109.94770050800008,-7.7630817539999226],[109.94792278400007,-7.7629516969999406],[109.94847092000003,-7.7626309759999508],[109.94882900900008,-7.7624214529999414],[109.94927029900005,-7.7621748499999157],[109.9495781240001,-7.7620151689998984],[109.95000503100005,-7.7617937159999375],[109.95082082400006,-7.7613705259999417],[109.95175142400008,-7.7611441109999539],[109.9522610260001,-7.7609941119999331],[109.95247754300004,-7.7609171579999323],[109.95280990200007,-7.7607990329999534],[109.95363741300008,-7.7604235609999259],[109.95455115300007,-7.7599528629999552],[109.95470616900009,-7.7598544329999388],[109.95538898900008,-7.7595448589999254],[109.95546454500004,-7.7594928089999415],[109.95580706800007,-7.7592459909999469],[109.95611220500008,-7.7589990019999444],[109.95648006900005,-7.7586724079999287],[109.95662833900009,-7.7585438229999619],[109.95717721500007,-7.7580599649999344],[109.95749329800009,-7.7577706789999352]]},"properties":{"OBJECTID":2,"NAMOBJ":" ","FCODE":" ","REMARK":"Jalan Lokal","METADATA":"2017; RBI KSP SK 26.4 2021","SRS_ID":" ","ARHRJL":0,"AUTRJL":999,"FGSRJL":0,"JARRJL":0,"JPARJL":0,"KLLRJL":" ","KONRJL":0,"KPMSTR":0,"LKONOF":" ","LKSBSP":" ","LKSRTA":" ","LLHRRT":0,"LOCRJL":0,"LBRBHJ":0,"LBRJLN":0,"MATRJL":0,"MEDRJL":0,"SPCRJL":0,"STARJL":0,"TOLRJL":0,"UTKRJL":0,"VLCPRT":0,"WLYRJL":0,"TGL_SK":null,"JLNLYG":0,"KLSRJL":0,"SHAPE_Leng":0.024079583134799999,"Nama":"Jl Kenteng Seborokrapyak","Shape_Length":1479.3045499705192}},{"type":"Feature","id":3,"geometry":{"type":"LineString","coordinates":[[109.94721022500001,-7.7634035259999017],[109.94716093000002,-7.7627558499999294],[109.94715484400007,-7.7626218809999878],[109.94714644485032,-7.7625067002624943]]},"properties":{"OBJECTID":3,"NAMOBJ":" ","FCODE":" ","REMARK":"Jalan Lain","METADATA":"2017; RBI KSP SK 26.4 2021","SRS_ID":" ","ARHRJL":0,"AUTRJL":999,"FGSRJL":0,"JARRJL":0,"JPARJL":0,"KLLRJL":" ","KONRJL":0,"KPMSTR":0,"LKONOF":" ","LKSBSP":" ","LKSRTA":" ","LLHRRT":0,"LOCRJL":0,"LBRBHJ":0,"LBRJLN":0,"MATRJL":0,"MEDRJL":0,"SPCRJL":0,"STARJL":0,"TOLRJL":0,"UTKRJL":0,"VLCPRT":0,"WLYRJL":0,"TGL_SK":null,"JLNLYG":0,"KLSRJL":0,"SHAPE_Leng":0.0030094447930300002,"Nama":"Jl Petung","Shape_Length":99.415777169768376}},{"type":"Feature","id":4,"geometry":{"type":"LineString","coordinates":[[109.94703582484161,-7.763517985354599],[109.94707240907917,-7.7635655072111067],[109.94705921081511,-7.7638897254364831],[109.94705863697756,-7.7644750397548865],[109.94704888173892,-7.7647694184267619]]},"properties":{"OBJECTID":4,"NAMOBJ":" ","FCODE":" ","REMARK":"Jalan Lain","METADATA":" ","SRS_ID":" ","ARHRJL":0,"AUTRJL":0,"FGSRJL":0,"JARRJL":0,"JPARJL":0,"KLLRJL":" ","KONRJL":0,"KPMSTR":0,"LKONOF":" ","LKSBSP":" ","LKSRTA":" ","LLHRRT":0,"LOCRJL":0,"LBRBHJ":0,"LBRJLN":0,"MATRJL":0,"MEDRJL":0,"SPCRJL":0,"STARJL":0,"TOLRJL":0,"UTKRJL":0,"VLCPRT":0,"WLYRJL":0,"TGL_SK":-2209161600000,"JLNLYG":0,"KLSRJL":0,"SHAPE_Leng":0,"Nama":"Gg Pertapan","Shape_Length":139.78698605994691}},{"type":"Feature","id":5,"geometry":{"type":"LineString","coordinates":[[109.95268590000006,-7.7632053689999374],[109.95268429400005,-7.7632067859999578],[109.95264346100004,-7.7632258289999587],[109.95257624200008,-7.7632424149999633],[109.95234231309108,-7.7632300609016385],[109.95189737189295,-7.7631846809793483],[109.95155220429785,-7.7631494772165786],[109.95091756460576,-7.7630976413035668],[109.9508940410001,-7.76309820799995],[109.95060686734402,-7.7631051279845691],[109.95045244235905,-7.7631088490685416],[109.94968255600007,-7.7631215539999223],[109.94960345416172,-7.7631228587747678],[109.94923569937329,-7.7631340665397195],[109.94886794458489,-7.7631452743046934],[109.9485029149631,-7.7631784588587607],[109.94840562427939,-7.7631873034233951],[109.9480682190474,-7.7632214876203989],[109.94804218853696,-7.763218385274393],[109.94792278393624,-7.7629516973823929]]},"properties":{"OBJECTID":5,"NAMOBJ":" ","FCODE":" ","REMARK":"Jalan Lain","METADATA":" ","SRS_ID":" ","ARHRJL":0,"AUTRJL":0,"FGSRJL":0,"JARRJL":0,"JPARJL":0,"KLLRJL":" ","KONRJL":0,"KPMSTR":0,"LKONOF":" ","LKSBSP":" ","LKSRTA":" ","LLHRRT":0,"LOCRJL":0,"LBRBHJ":0,"LBRJLN":0,"MATRJL":0,"MEDRJL":0,"SPCRJL":0,"STARJL":0,"TOLRJL":0,"UTKRJL":0,"VLCPRT":0,"WLYRJL":0,"TGL_SK":-2209161600000,"JLNLYG":0,"KLSRJL":0,"SHAPE_Leng":0,"Nama":"Jl Suka Amal","Shape_Length":546.36755040045932}},{"type":"Feature","id":6,"geometry":{"type":"LineString","coordinates":[[109.95247754300004,-7.7609171579999323],[109.95251312600006,-7.7604749359999889],[109.95256116500008,-7.7601161699999412],[109.95257436400004,-7.7600823129999084],[109.95259502200008,-7.760015747999911],[109.95268167100006,-7.7597902299999708],[109.95269200000007,-7.7597466179999479],[109.95269888600006,-7.7597035799999432],[109.95271610200008,-7.7595951249999837],[109.95272470900005,-7.7595383149999027],[109.95272930000007,-7.7594780619999799],[109.95273962900008,-7.759436171999897],[109.95275167900009,-7.759418382999967],[109.95277233800005,-7.7593879699999393],[109.95279184800006,-7.7593024679999241],[109.95281250600004,-7.7591153969999684],[109.95282111400007,-7.7588829929999239],[109.95285554400003,-7.7585495929999384],[109.95288997400009,-7.7582586569999403],[109.95291522300006,-7.7581146239999761],[109.95293186400006,-7.7580044469999567],[109.95294104600003,-7.7579005829999383],[109.95294162000005,-7.7577226929999439],[109.95295037300008,-7.7573438549999256],[109.95295946500006,-7.7569503499999222]]},"properties":{"OBJECTID":6,"NAMOBJ":" ","FCODE":" ","REMARK":"Jalan Lain","METADATA":" ","SRS_ID":" ","ARHRJL":0,"AUTRJL":0,"FGSRJL":0,"JARRJL":0,"JPARJL":0,"KLLRJL":" ","KONRJL":0,"KPMSTR":0,"LKONOF":" ","LKSBSP":" ","LKSRTA":" ","LLHRRT":0,"LOCRJL":0,"LBRBHJ":0,"LBRJLN":0,"MATRJL":0,"MEDRJL":0,"SPCRJL":0,"STARJL":0,"TOLRJL":0,"UTKRJL":0,"VLCPRT":0,"WLYRJL":0,"TGL_SK":-2209161600000,"JLNLYG":0,"KLSRJL":0,"SHAPE_Leng":0,"Nama":"Jl Kelok Indah","Shape_Length":444.42526007946356}},{"type":"Feature","id":7,"geometry":{"type":"LineString","coordinates":[[109.95760334300009,-7.7574033729998995],[109.95736255500009,-7.7573585619999843],[109.95700634100007,-7.7572978709998974],[109.95663392500008,-7.7572283179999362],[109.95654034800006,-7.7572144229999251],[109.95609614600005,-7.7571484589999535],[109.95603038000007,-7.7571440089999477],[109.95572654600005,-7.7571074629999233],[109.95511323900008,-7.7570502959999157],[109.9548036560001,-7.7570074159999587],[109.9542017940001,-7.7569503769999466],[109.95365697100006,-7.7569307079999676],[109.95338160900008,-7.756956277999957],[109.95300397000005,-7.7569405429999359],[109.95202701100006,-7.756880860999936],[109.95188720700008,-7.7568704419999728],[109.95180262500008,-7.7568222179999724],[109.95172779400009,-7.7567795579999483]]},"properties":{"OBJECTID":7,"NAMOBJ":" ","FCODE":" ","REMARK":"Jalan Lain","METADATA":" ","SRS_ID":" ","ARHRJL":0,"AUTRJL":0,"FGSRJL":0,"JARRJL":0,"JPARJL":0,"KLLRJL":" ","KONRJL":0,"KPMSTR":0,"LKONOF":" ","LKSBSP":" ","LKSRTA":" ","LLHRRT":0,"LOCRJL":0,"LBRBHJ":0,"LBRJLN":0,"MATRJL":0,"MEDRJL":0,"SPCRJL":0,"STARJL":0,"TOLRJL":0,"UTKRJL":0,"VLCPRT":0,"WLYRJL":0,"TGL_SK":-2209161600000,"JLNLYG":0,"KLSRJL":0,"SHAPE_Leng":0,"Nama":"Jl Kromo Dono","Shape_Length":654.66158752475735}},{"type":"Feature","id":8,"geometry":{"type":"LineString","coordinates":[[109.95533707500003,-7.755057231999956],[109.95537754100009,-7.755446318999927],[109.95541285000009,-7.7557034159999665],[109.95542057400007,-7.7558799629999022],[109.95538614100008,-7.7563550019999656],[109.95535336200005,-7.7566884089999393],[109.95530056200005,-7.7570677569999571]]},"properties":{"OBJECTID":8,"NAMOBJ":" ","FCODE":" ","REMARK":"Jalan Lain","METADATA":" ","SRS_ID":" ","ARHRJL":0,"AUTRJL":0,"FGSRJL":0,"JARRJL":0,"JPARJL":0,"KLLRJL":" ","KONRJL":0,"KPMSTR":0,"LKONOF":" ","LKSBSP":" ","LKSRTA":" ","LLHRRT":0,"LOCRJL":0,"LBRBHJ":0,"LBRJLN":0,"MATRJL":0,"MEDRJL":0,"SPCRJL":0,"STARJL":0,"TOLRJL":0,"UTKRJL":0,"VLCPRT":0,"WLYRJL":0,"TGL_SK":-2209161600000,"JLNLYG":0,"KLSRJL":0,"SHAPE_Leng":0,"Nama":"Gg Semar","Shape_Length":223.53161887371709}},{"type":"Feature","id":9,"geometry":{"type":"LineString","coordinates":[[109.94914683200007,-7.7631367749999667],[109.94916583400006,-7.7633249999999512],[109.94917416600005,-7.7635758329999396],[109.94918312100003,-7.7653865869999343],[109.94916168200008,-7.7658642499998969],[109.94914671900007,-7.7660063989999291],[109.94913603100009,-7.7661228979999368],[109.94913389400007,-7.7661763379999762],[109.94909969200008,-7.766275735999959],[109.94864759200004,-7.7678351059999518],[109.9486390420001,-7.7678778579999621],[109.94861766600008,-7.7678949589999293],[109.94856529500005,-7.7678992339999597],[109.94853002500008,-7.7679120589999737],[109.94852468100004,-7.7679291599999223],[109.94829974700008,-7.768442140999988]]},"properties":{"OBJECTID":9,"NAMOBJ":" ","FCODE":" ","REMARK":"Jalan Lain","METADATA":" ","SRS_ID":" ","ARHRJL":0,"AUTRJL":0,"FGSRJL":0,"JARRJL":0,"JPARJL":0,"KLLRJL":" ","KONRJL":0,"KPMSTR":0,"LKONOF":" ","LKSBSP":" ","LKSRTA":" ","LLHRRT":0,"LOCRJL":0,"LBRBHJ":0,"LBRJLN":0,"MATRJL":0,"MEDRJL":0,"SPCRJL":0,"STARJL":0,"TOLRJL":0,"UTKRJL":0,"VLCPRT":0,"WLYRJL":0,"TGL_SK":-2209161600000,"JLNLYG":0,"KLSRJL":0,"SHAPE_Leng":0,"Nama":"JUT Margomulyo","Shape_Length":609.1659901754939}},{"type":"Feature","id":10,"geometry":{"type":"LineString","coordinates":[[109.95284428419487,-7.7620504721153019],[109.95202575005244,-7.7619259532735017],[109.95155364342203,-7.7618541344357093]]},"properties":{"OBJECTID":10,"NAMOBJ":" ","FCODE":" ","REMARK":"Jalan Lain","METADATA":" ","SRS_ID":" ","ARHRJL":0,"AUTRJL":0,"FGSRJL":0,"JARRJL":0,"JPARJL":0,"KLLRJL":" ","KONRJL":0,"KPMSTR":0,"LKONOF":" ","LKSBSP":" ","LKSRTA":" ","LLHRRT":0,"LOCRJL":0,"LBRBHJ":0,"LBRJLN":0,"MATRJL":0,"MEDRJL":0,"SPCRJL":0,"STARJL":0,"TOLRJL":0,"UTKRJL":0,"VLCPRT":0,"WLYRJL":0,"TGL_SK":-2209161600000,"JLNLYG":0,"KLSRJL":0,"SHAPE_Leng":0,"Nama":"Gg Srikandi","Shape_Length":143.97837900721169}},{"type":"Feature","id":11,"geometry":{"type":"LineString","coordinates":[[109.95060686734402,-7.7631051279845691],[109.95060686734402,-7.7631051279845691],[109.95057676562671,-7.7634049546561616],[109.95057142165626,-7.7634455688314752],[109.95057142165625,-7.7634883205949592],[109.95056073371539,-7.7635171780353094],[109.95054790818635,-7.7635332099466172],[109.95051584436372,-7.7635289347702656],[109.95037155716196,-7.76352252200574],[109.95034590610386,-7.7635428290933977],[109.95033521816302,-7.7635738241219139],[109.95024971463603,-7.7642044126333198],[109.9502358203129,-7.764241820426383],[109.95021337563708,-7.764272815454901],[109.95018772457898,-7.7642984665130017],[109.95015779834456,-7.7643412182764902],[109.95013535366871,-7.7643668693345846],[109.95013321608054,-7.7643775572754583],[109.9501214593456,-7.7644106898921503],[109.95009046431707,-7.7646650628848919],[109.95006053808262,-7.7650925805197515],[109.94997824093792,-7.7661068661084292]]},"properties":{"OBJECTID":11,"NAMOBJ":" ","FCODE":" ","REMARK":"Jalan Lain","METADATA":" ","SRS_ID":" ","ARHRJL":0,"AUTRJL":0,"FGSRJL":0,"JARRJL":0,"JPARJL":0,"KLLRJL":" ","KONRJL":0,"KPMSTR":0,"LKONOF":" ","LKSBSP":" ","LKSRTA":" ","LLHRRT":0,"LOCRJL":0,"LBRBHJ":0,"LBRJLN":0,"MATRJL":0,"MEDRJL":0,"SPCRJL":0,"STARJL":0,"TOLRJL":0,"UTKRJL":0,"VLCPRT":0,"WLYRJL":0,"TGL_SK":-2209161600000,"JLNLYG":0,"KLSRJL":0,"SHAPE_Leng":0,"Nama":"JUT Serut","Shape_Length":360.82880684373379}},{"type":"Feature","id":12,"geometry":{"type":"LineString","coordinates":[[109.95538614145339,-7.756355002088358],[109.95545305100006,-7.7563584529999021],[109.95565082800003,-7.7563860489999623],[109.95633325200004,-7.7564761249999199],[109.95675350800008,-7.7565248299999299],[109.95673242200009,-7.7566373109999303],[109.95663392500009,-7.7572283179999362]]},"properties":{"OBJECTID":12,"NAMOBJ":" ","FCODE":" ","REMARK":"Jalan Lain","METADATA":" ","SRS_ID":" ","ARHRJL":0,"AUTRJL":0,"FGSRJL":0,"JARRJL":0,"JPARJL":0,"KLLRJL":" ","KONRJL":0,"KPMSTR":0,"LKONOF":" ","LKSBSP":" ","LKSRTA":" ","LLHRRT":0,"LOCRJL":0,"LBRBHJ":0,"LBRJLN":0,"MATRJL":0,"MEDRJL":0,"SPCRJL":0,"STARJL":0,"TOLRJL":0,"UTKRJL":0,"VLCPRT":0,"WLYRJL":0,"TGL_SK":-2209161600000,"JLNLYG":0,"KLSRJL":0,"SHAPE_Leng":0,"Nama":"Gg Puntadewa","Shape_Length":230.88143785347393}},{"type":"Feature","id":13,"geometry":{"type":"LineString","coordinates":[[109.9495781240001,-7.7620151689998984],[109.94966064400008,-7.7620687789999305],[109.94966865400005,-7.762310352999938],[109.94967208300007,-7.7624908649999558],[109.94968106500005,-7.7627824759999333],[109.94960475100005,-7.7627815999999141],[109.94960345400006,-7.7631228589999717]]},"properties":{"OBJECTID":13,"NAMOBJ":" ","FCODE":" ","REMARK":"Jalan Lain","METADATA":" ","SRS_ID":" ","ARHRJL":0,"AUTRJL":0,"FGSRJL":0,"JARRJL":0,"JPARJL":0,"KLLRJL":" ","KONRJL":0,"KPMSTR":0,"LKONOF":" ","LKSBSP":" ","LKSRTA":" ","LLHRRT":0,"LOCRJL":0,"LBRBHJ":0,"LBRJLN":0,"MATRJL":0,"MEDRJL":0,"SPCRJL":0,"STARJL":0,"TOLRJL":0,"UTKRJL":0,"VLCPRT":0,"WLYRJL":0,"TGL_SK":-2209161600000,"JLNLYG":0,"KLSRJL":0,"SHAPE_Leng":0,"Nama":"Gg Wirasana","Shape_Length":135.95581644765613}},{"type":"Feature","id":14,"geometry":{"type":"MultiLineString","coordinates":[[[109.9485026014047,-7.7631750276800791],[109.9485029149631,-7.7631784588587607]],[[109.94847091999939,-7.7626309755181531],[109.94847097378064,-7.7626313337619486],[109.94848621077043,-7.7627325151944406],[109.9485026014047,-7.7631750276800791]]]},"properties":{"OBJECTID":14,"NAMOBJ":" ","FCODE":" ","REMARK":"Jalan Lain","METADATA":" ","SRS_ID":" ","ARHRJL":0,"AUTRJL":0,"FGSRJL":0,"JARRJL":0,"JPARJL":0,"KLLRJL":" ","KONRJL":0,"KPMSTR":0,"LKONOF":" ","LKSBSP":" ","LKSRTA":" ","LLHRRT":0,"LOCRJL":0,"LBRBHJ":0,"LBRJLN":0,"MATRJL":0,"MEDRJL":0,"SPCRJL":0,"STARJL":0,"TOLRJL":0,"UTKRJL":0,"VLCPRT":0,"WLYRJL":0,"TGL_SK":-2209161600000,"JLNLYG":0,"KLSRJL":0,"SHAPE_Leng":0,"Nama":"Gg Wicaksono","Shape_Length":60.695400887321966}},{"type":"Feature","id":15,"geometry":{"type":"LineString","coordinates":[[109.95234231309108,-7.7632300609016385],[109.95233790700009,-7.7632298279999699],[109.95225401600005,-7.7635383459999678],[109.95214038100005,-7.7638898289999299],[109.95205328100008,-7.764183946999923],[109.95197585500006,-7.7644469809999377],[109.95189108800008,-7.7647674259999047],[109.95177125100011,-7.7652014509999328],[109.95160817800007,-7.7656557079999482],[109.95157771300005,-7.7658470689999604],[109.95153833200004,-7.7660055039999616],[109.95148984400005,-7.7662087839999652],[109.95147444900006,-7.7663702699999213],[109.95148010600009,-7.7665078799999456],[109.95147689900007,-7.7665916239999371],[109.95144064400007,-7.7666992179999097],[109.95138027100006,-7.7668576019999538],[109.95135002900008,-7.7669592259999183],[109.95133489200005,-7.7670160229999041],[109.95131614147388,-7.7670878105705379]]},"properties":{"OBJECTID":15,"NAMOBJ":" ","FCODE":" ","REMARK":"Jalan Lain","METADATA":" ","SRS_ID":" ","ARHRJL":0,"AUTRJL":0,"FGSRJL":0,"JARRJL":0,"JPARJL":0,"KLLRJL":" ","KONRJL":0,"KPMSTR":0,"LKONOF":" ","LKSBSP":" ","LKSRTA":" ","LLHRRT":0,"LOCRJL":0,"LBRBHJ":0,"LBRJLN":0,"MATRJL":0,"MEDRJL":0,"SPCRJL":0,"STARJL":0,"TOLRJL":0,"UTKRJL":0,"VLCPRT":0,"WLYRJL":0,"TGL_SK":-2209161600000,"JLNLYG":0,"KLSRJL":0,"SHAPE_Leng":0,"Nama":"JUT Totogan","Shape_Length":443.36584306941256}},{"type":"Feature","id":16,"geometry":{"type":"LineString","coordinates":[[109.9480682190474,-7.7632214876203989],[109.94813731520507,-7.7639949440786928],[109.94816967653297,-7.7646246415835316]]},"properties":{"OBJECTID":16,"NAMOBJ":" ","FCODE":" ","REMARK":"Jalan Lain","METADATA":" ","SRS_ID":" ","ARHRJL":0,"AUTRJL":0,"FGSRJL":0,"JARRJL":0,"JPARJL":0,"KLLRJL":" ","KONRJL":0,"KPMSTR":0,"LKONOF":" ","LKSBSP":" ","LKSRTA":" ","LLHRRT":0,"LOCRJL":0,"LBRBHJ":0,"LBRJLN":0,"MATRJL":0,"MEDRJL":0,"SPCRJL":0,"STARJL":0,"TOLRJL":0,"UTKRJL":0,"VLCPRT":0,"WLYRJL":0,"TGL_SK":-2209161600000,"JLNLYG":0,"KLSRJL":0,"SHAPE_Leng":0,"Nama":" Gang Cikal","Shape_Length":155.57514009246185}},{"type":"Feature","id":17,"geometry":{"type":"MultiLineString","coordinates":[[[109.95440111113464,-7.7616027008133317],[109.95447861562961,-7.7616111368325607]],[[109.95288967300007,-7.7614623549999431],[109.95329263317267,-7.7614878240700795],[109.95341915700006,-7.7614958209999294],[109.95440111113464,-7.7616027008133317]]]},"properties":{"OBJECTID":17,"NAMOBJ":" ","FCODE":" ","REMARK":"Jalan Lain","METADATA":" ","SRS_ID":" ","ARHRJL":0,"AUTRJL":0,"FGSRJL":0,"JARRJL":0,"JPARJL":0,"KLLRJL":" ","KONRJL":0,"KPMSTR":0,"LKONOF":" ","LKSBSP":" ","LKSRTA":" ","LLHRRT":0,"LOCRJL":0,"LBRBHJ":0,"LBRJLN":0,"MATRJL":0,"MEDRJL":0,"SPCRJL":0,"STARJL":0,"TOLRJL":0,"UTKRJL":0,"VLCPRT":0,"WLYRJL":0,"TGL_SK":-2209161600000,"JLNLYG":0,"KLSRJL":0,"SHAPE_Leng":0,"Nama":"Gg Gayam Permai II","Shape_Length":176.0400824356245}},{"type":"Feature","id":18,"geometry":{"type":"LineString","coordinates":[[109.95447861562961,-7.7616111368325607],[109.95456116532432,-7.7612191468517553],[109.95465295570362,-7.7607832771717105],[109.95472867088725,-7.7601512199867395],[109.95470616905003,-7.7598544331714185],[109.95470616905003,-7.7598544331714185]]},"properties":{"OBJECTID":18,"NAMOBJ":" ","FCODE":" ","REMARK":"Jalan Lain","METADATA":" ","SRS_ID":" ","ARHRJL":0,"AUTRJL":0,"FGSRJL":0,"JARRJL":0,"JPARJL":0,"KLLRJL":" ","KONRJL":0,"KPMSTR":0,"LKONOF":" ","LKSBSP":" ","LKSRTA":" ","LLHRRT":0,"LOCRJL":0,"LBRBHJ":0,"LBRJLN":0,"MATRJL":0,"MEDRJL":0,"SPCRJL":0,"STARJL":0,"TOLRJL":0,"UTKRJL":0,"VLCPRT":0,"WLYRJL":0,"TGL_SK":-2209161600000,"JLNLYG":0,"KLSRJL":0,"SHAPE_Leng":0,"Nama":"Gg Gayam Permai I","Shape_Length":196.82417622918177}},{"type":"Feature","id":19,"geometry":{"type":"LineString","coordinates":[[109.95116922600006,-7.7612857599999456],[109.95111947200009,-7.7617009349999684],[109.95110279400008,-7.761839920999936],[109.95105434800007,-7.7623038119999395],[109.9510358400001,-7.7624834759999484],[109.95089932600008,-7.7624839159999244],[109.9508940410001,-7.76309820799995]]},"properties":{"OBJECTID":19,"NAMOBJ":" ","FCODE":" ","REMARK":"Jalan Lain","METADATA":" ","SRS_ID":" ","ARHRJL":0,"AUTRJL":0,"FGSRJL":0,"JARRJL":0,"JPARJL":0,"KLLRJL":" ","KONRJL":0,"KPMSTR":0,"LKONOF":" ","LKSBSP":" ","LKSRTA":" ","LLHRRT":0,"LOCRJL":0,"LBRBHJ":0,"LBRJLN":0,"MATRJL":0,"MEDRJL":0,"SPCRJL":0,"STARJL":0,"TOLRJL":0,"UTKRJL":0,"VLCPRT":0,"WLYRJL":0,"TGL_SK":-2209161600000,"JLNLYG":0,"KLSRJL":0,"SHAPE_Leng":0,"Nama":"Jl Wilosowining","Shape_Length":216.22709043399738}},{"type":"Feature","id":20,"geometry":{"type":"LineString","coordinates":[[109.95437026965485,-7.7569663435884282],[109.95441474551731,-7.7561014485817621]]},"properties":{"OBJECTID":20,"NAMOBJ":" ","FCODE":" ","REMARK":"Jalan Lain","METADATA":" ","SRS_ID":" ","ARHRJL":0,"AUTRJL":0,"FGSRJL":0,"JARRJL":0,"JPARJL":0,"KLLRJL":" ","KONRJL":0,"KPMSTR":0,"LKONOF":" ","LKSBSP":" ","LKSRTA":" ","LLHRRT":0,"LOCRJL":0,"LBRBHJ":0,"LBRJLN":0,"MATRJL":0,"MEDRJL":0,"SPCRJL":0,"STARJL":0,"TOLRJL":0,"UTKRJL":0,"VLCPRT":0,"WLYRJL":0,"TGL_SK":-2209161600000,"JLNLYG":0,"KLSRJL":0,"SHAPE_Leng":0,"Nama":"Jl Makam","Shape_Length":95.755813407529473}},{"type":"Feature","id":21,"geometry":{"type":"LineString","coordinates":[[109.95281175300006,-7.7623589299999383],[109.95367195000006,-7.7624535889999233],[109.95412647500007,-7.7624722859999213],[109.95469202600012,-7.7625370609999367]]},"properties":{"OBJECTID":21,"NAMOBJ":" ","FCODE":" ","REMARK":"Jalan Lain","METADATA":" ","SRS_ID":" ","ARHRJL":0,"AUTRJL":0,"FGSRJL":0,"JARRJL":0,"JPARJL":0,"KLLRJL":" ","KONRJL":0,"KPMSTR":0,"LKONOF":" ","LKSBSP":" ","LKSRTA":" ","LLHRRT":0,"LOCRJL":0,"LBRBHJ":0,"LBRJLN":0,"MATRJL":0,"MEDRJL":0,"SPCRJL":0,"STARJL":0,"TOLRJL":0,"UTKRJL":0,"VLCPRT":0,"WLYRJL":0,"TGL_SK":-2209161600000,"JLNLYG":0,"KLSRJL":0,"SHAPE_Leng":0,"Nama":"Jl Panembahan Senopati II","Shape_Length":208.38501585747915}},{"type":"Feature","id":22,"geometry":{"type":"LineString","coordinates":[[109.95280990200007,-7.7607990329999534],[109.95288967300007,-7.7614623549999431],[109.95284428419487,-7.7620504721153019],[109.95281175300006,-7.7623589299999383],[109.95268590000006,-7.7632053689999374]]},"properties":{"OBJECTID":22,"NAMOBJ":" ","FCODE":" ","REMARK":"Jalan Lain","METADATA":" ","SRS_ID":" ","ARHRJL":0,"AUTRJL":0,"FGSRJL":0,"JARRJL":0,"JPARJL":0,"KLLRJL":" ","KONRJL":0,"KPMSTR":0,"LKONOF":" ","LKSBSP":" ","LKSRTA":" ","LLHRRT":0,"LOCRJL":0,"LBRBHJ":0,"LBRJLN":0,"MATRJL":0,"MEDRJL":0,"SPCRJL":0,"STARJL":0,"TOLRJL":0,"UTKRJL":0,"VLCPRT":0,"WLYRJL":0,"TGL_SK":-2209161600000,"JLNLYG":0,"KLSRJL":0,"SHAPE_Leng":0,"Nama":"Jl Panembahan Senopati I","Shape_Length":267.99483331536157}},{"type":"Feature","id":23,"geometry":{"type":"LineString","coordinates":[[109.95189737189295,-7.7631846809793483],[109.95202575005244,-7.7619259532735017],[109.95202575005244,-7.7619259532735017]]},"properties":{"OBJECTID":23,"NAMOBJ":" ","FCODE":" ","REMARK":"Jalan Lain","METADATA":" ","SRS_ID":" ","ARHRJL":0,"AUTRJL":0,"FGSRJL":0,"JARRJL":0,"JPARJL":0,"KLLRJL":" ","KONRJL":0,"KPMSTR":0,"LKONOF":" ","LKSBSP":" ","LKSRTA":" ","LLHRRT":0,"LOCRJL":0,"LBRBHJ":0,"LBRJLN":0,"MATRJL":0,"MEDRJL":0,"SPCRJL":0,"STARJL":0,"TOLRJL":0,"UTKRJL":0,"VLCPRT":0,"WLYRJL":0,"TGL_SK":-2209161600000,"JLNLYG":0,"KLSRJL":0,"SHAPE_Leng":0,"Nama":"Gg Madyo Kromo","Shape_Length":139.8939637410559}},{"type":"Feature","id":26,"geometry":{"type":"LineString","coordinates":[[109.95329263317267,-7.7614878240700795],[109.9533166364828,-7.7613586107052601],[109.95333313489796,-7.7612064586542893],[109.95333313489795,-7.7611184671067832],[109.95456116532432,-7.7612191468517553]]},"properties":{"OBJECTID":26,"NAMOBJ":" ","FCODE":" ","REMARK":"Jalan Lain","METADATA":" ","SRS_ID":" ","ARHRJL":0,"AUTRJL":0,"FGSRJL":0,"JARRJL":0,"JPARJL":0,"KLLRJL":" ","KONRJL":0,"KPMSTR":0,"LKONOF":" ","LKSBSP":" ","LKSRTA":" ","LLHRRT":0,"LOCRJL":0,"LBRBHJ":0,"LBRJLN":0,"MATRJL":0,"MEDRJL":0,"SPCRJL":0,"STARJL":0,"TOLRJL":0,"UTKRJL":0,"VLCPRT":0,"WLYRJL":0,"TGL_SK":-2209161600000,"JLNLYG":0,"KLSRJL":0,"SHAPE_Leng":0,"Nama":"Gg Rahmad Anom","Shape_Length":177.06511372326844}},{"type":"Feature","id":28,"geometry":{"type":"LineString","coordinates":[[109.95412647500008,-7.7624722859999213],[109.95412104826109,-7.7623966545233136],[109.95420973200007,-7.7615818709999393]]},"properties":{"OBJECTID":28,"NAMOBJ":null,"FCODE":null,"REMARK":"Jalan Lain","METADATA":null,"SRS_ID":null,"ARHRJL":null,"AUTRJL":null,"FGSRJL":null,"JARRJL":null,"JPARJL":null,"KLLRJL":null,"KONRJL":null,"KPMSTR":null,"LKONOF":null,"LKSBSP":null,"LKSRTA":null,"LLHRRT":null,"LOCRJL":null,"LBRBHJ":null,"LBRJLN":null,"MATRJL":null,"MEDRJL":null,"SPCRJL":null,"STARJL":null,"TOLRJL":null,"UTKRJL":null,"VLCPRT":null,"WLYRJL":null,"TGL_SK":null,"JLNLYG":null,"KLSRJL":null,"SHAPE_Leng":null,"Nama":"Gg Cemara","Shape_Length":99.002541488036769}}]}