{
  "type": "FeatureCollection",
  "features": [
    {
      "type": "Feature",
      "id": 0,
      "geometry": {
        "type": "LineString",
        "coordinates": [
          [109.95238335123794, -7.7559070861080182],
          [109.9523877430001, -7.7559111899998987],
          [109.95250057700011, -7.7560227029998918],
          [109.9527387940001, -7.7562540689999366],
          [109.95289467700012, -7.7564042609999371],
          [109.95347156400007, -7.756936275999994],
          [109.95374586400003, -7.7571779779999233],
          [109.95404137500005, -7.7574298979999758],
          [109.95429602500008, -7.7576866739999968],
          [109.95465823100002, -7.7580518999999226],
          [109.95479569000011, -7.758180058999967],
          [109.9548663290001, -7.7582420139999435],
          [109.9550477050001, -7.7584134489999057],
          [109.95512242300006, -7.7584851989999777],
          [109.95512246600006, -7.7584852409999909],
          [109.95518959600011, -7.7585497049999894],
          [109.95539726400006, -7.7587526959999105],
          [109.95549942900007, -7.7588449899999175],
          [109.95563220500004, -7.7589566320000083],
          [109.95578404600009, -7.7590921879999346],
          [109.95584556854865, -7.7591471171830992]
        ]
      },
      "properties": {
        "FID": 0,
        "NAMOBJ": " ",
        "FCODE": " ",
        "Nama": "Jalan Kereta Api Jalur Tunggal",
        "METADATA": " ",
        "SRS_ID": " ",
        "JMLREL": 1,
        "KEBREL": 0,
        "KLSREL": 0,
        "KMXREL": 0,
        "TIPREL": 0,
        "SHAPE_Leng": 0.36083169482900002
      }
    }
  ]
}
