{"type":"FeatureCollection","features":[{"type":"Feature","id":0,"geometry":{"type":"LineString","coordinates":[[109.94975510141468,-7.7600100678048891],[109.94975433463384,-7.7598835489645595],[109.94975970209978,-7.7598536445114012],[109.94976583634659,-7.7598329414284368],[109.94978193874447,-7.7597301927944855],[109.94979037333381,-7.7597125568349226],[109.94980034148487,-7.7597071893689646],[109.94983024593803,-7.7597071893689726],[109.95016149526542,-7.7597171575200266],[109.95017836444413,-7.7597140903966233],[109.95018679903349,-7.7597048890264153],[109.95021977061006,-7.7595990732690598],[109.9503221511892,-7.7591852263084551],[109.95038202143799,-7.7589285694221992],[109.95039330845211,-7.7589099213119024],[109.95040852138418,-7.7589069768734484],[109.95060432654216,-7.7589182638875656],[109.95100378869401,-7.7589477082722187],[109.95102096458506,-7.7589511434504237],[109.9510347052979,-7.7589575230671084],[109.95104599231202,-7.7589599767658344],[109.95105924228511,-7.758960958245309],[109.95106856634025,-7.7589609582453107],[109.95107838113515,-7.7589580138068417],[109.95109899220441,-7.7589516341901739],[109.95129136218416,-7.7588235511169179],[109.95165106291499,-7.7584695571525373],[109.95171115936415,-7.7584005947998156],[109.95171806039181,-7.75835305438709],[109.95169965765139,-7.758218100957408],[109.95169582374713,-7.758159825612772],[109.95169198984287,-7.7580900485553776],[109.95169505696627,-7.7580455752660518],[109.95170732545991,-7.7579412930703953],[109.95172726176202,-7.757824742381124],[109.95172879532372,-7.7577856365577569],[109.95171422648755,-7.7577518982003335],[109.95170809224076,-7.7577081916918598],[109.95173032888543,-7.7574781574367346],[109.95173953025564,-7.7574551540112182],[109.95179167135346,-7.7574168149686935],[109.9518468795747,-7.7574007125708349],[109.9519365929342,-7.7573700413368094],[109.95199640184053,-7.7573562392814974],[109.95205084328092,-7.7573493382538494],[109.95210451794044,-7.7573539389389454],[109.952305222828,-7.7573601211095511],[109.95294965300006,-7.7573750109999589],[109.95309356938989,-7.757322980162118],[109.95351170457238,-7.7573289706375013],[109.95375252168323,-7.7573289706375048],[109.95383758643382,-7.7572930277851517],[109.95403886640709,-7.7571971801788457],[109.95409517687578,-7.7571828030378924],[109.95415268543957,-7.7572007744640707],[109.95421019400335,-7.7572007744640716],[109.95425669506862,-7.7571938854173732],[109.95452065039066,-7.7572856145718445],[109.95461237954514,-7.7573586234907062],[109.95468913251113,-7.7573941919383689],[109.95477898964204,-7.7574185282446528],[109.95488569498499,-7.7574297603860201],[109.95497555211591,-7.7574241443153289],[109.95526758779138,-7.757437248480259],[109.9554379419354,-7.7574690728807845],[109.95550533478358,-7.7574915371635225],[109.95560268000874,-7.7575121294226754],[109.95568879309253,-7.7575214895404949],[109.95573746570511,-7.7575177454933693],[109.95586476330722,-7.7575140014462498],[109.95595836448526,-7.7575308496582869],[109.95632528110313,-7.7576618913075466],[109.95647129894087,-7.7577255401085967],[109.95656864416601,-7.7577817008154266],[109.95668096557966,-7.7578116531923929],[109.95675584652209,-7.7578116531923946],[109.95682885544095,-7.7578116531923991],[109.9568550637708,-7.7578116531923866],[109.95733430180232,-7.7578584537814113]]},"properties":{"FID":0,"Id":0}},{"type":"Feature","id":1,"geometry":{"type":"LineString","coordinates":[[109.95750987000008,-7.7576835109999189],[109.95733430200005,-7.7578584539999715],[109.95719103500005,-7.7580103949999222],[109.95684245700005,-7.7583009129999772],[109.95656564900008,-7.7585485839999189],[109.95593474200007,-7.7590851149999507],[109.95573648300007,-7.7592642349999332],[109.95548065300005,-7.7594479279999247],[109.95490029700005,-7.7597215669999304],[109.95430604200004,-7.7599875439999515],[109.95412273300008,-7.7600809949999512],[109.95408319600006,-7.7601025609999335],[109.95408319600006,-7.7601229279999346],[109.95409996900008,-7.7601972099999417],[109.95410236500004,-7.7602583129999445],[109.95383758600008,-7.7603877069999427],[109.95357715100005,-7.7605448079999686],[109.95349290900003,-7.7606047119999841],[109.95348729300008,-7.7606496409999375],[109.95348167700007,-7.7607788109999705],[109.95345359700008,-7.7608611799999521],[109.95335438000006,-7.7609135959999644],[109.95324767400007,-7.7609866049999638],[109.95317092100004,-7.7610876939999738],[109.95302116000005,-7.7611981439999314],[109.95285080500008,-7.7613160809999577],[109.95269729900008,-7.7613984499999411],[109.95253068900007,-7.7614826909999692],[109.95236969500007,-7.7615351079999693],[109.95207204400003,-7.7615875249999258],[109.95161152600008,-7.7615388519999406],[109.95143555600004,-7.7615482119999823],[109.95132885000004,-7.7616099889999681],[109.95100124600003,-7.7619432089999787],[109.95087633900005,-7.7620450589999477],[109.95069218000003,-7.7621716679999571],[109.95043282100005,-7.7622719439999681],[109.94978979600006,-7.7624018679999205],[109.94944449600007,-7.7624398509999475],[109.94939816200008,-7.7624463219999571],[109.94938206400008,-7.7624659969999348],[109.94938027500007,-7.7625053479999284],[109.94938259900005,-7.7627354139999669],[109.94937198300005,-7.7627598289999531],[109.94935241600007,-7.7627816979999631],[109.94932479200008,-7.7627920569999569],[109.94930407400005,-7.7628081709999543],[109.94928105400004,-7.7628438519999499],[109.94928105400004,-7.7628956469999384],[109.94927645000007,-7.7630510319999599],[109.94927529900008,-7.7630567869999201],[109.94921659800008,-7.7630682969999603],[109.94919472900006,-7.7630786559999505],[109.94917746400006,-7.7631039779999478],[109.94917055800005,-7.7631477159999358],[109.94919451400006,-7.7634871169999471],[109.94915315000009,-7.7635212869999419],[109.94907761500008,-7.7635482639999491],[109.94897150700007,-7.7635698449999557],[109.94884921400006,-7.7635752399999651],[109.94873771100004,-7.7635842319999693],[109.94861541700004,-7.7636130069999423],[109.94844501900008,-7.76371966799997],[109.94813544700008,-7.7639740289999333],[109.94744120100006,-7.7645105069999625],[109.94725268300004,-7.7646631979999361],[109.94708008800006,-7.7647672589999468],[109.94698450500005,-7.7647851809999766],[109.94638909700006,-7.7648309819999861],[109.94609203800007,-7.7648776179999492]]},"properties":{"FID":1,"Id":0}}]}