{"type":"FeatureCollection","features":[{"type":"Feature","id":1,"geometry":{"type":"Point","coordinates":[109.94619310667966,-7.764738943276261]},"properties":{"FID":1,"Id":0,"Nama":"TPU Dusun Kliwonan","Kelas":"Tempat Pemakaman Umum"}},{"type":"Feature","id":2,"geometry":{"type":"Point","coordinates":[109.95404542620265,-7.7563636300770309]},"properties":{"FID":2,"Id":0,"Nama":"TPU Dusun Tegalisir","Kelas":"Tempat Pemakaman Umum"}},{"type":"Feature","id":11,"geometry":{"type":"Point","coordinates":[109.95416310372093,-7.760398169657722]},"properties":{"FID":11,"Id":0,"Nama":"TPU Dusun Karangwaru","Kelas":"Tempat Pemakaman Umum"}},{"type":"Feature","id":14,"geometry":{"type":"Point","coordinates":[109.95455544316883,-7.7561060954795193]},"properties":{"FID":14,"Id":0,"Nama":"TPU Dusun Tegalisir","Kelas":"Tempat Pemakaman Umum"}},{"type":"Feature","id":16,"geometry":{"type":"Point","coordinates":[109.9501134538875,-7.7663855638136123]},"properties":{"FID":16,"Id":0,"Nama":"TPU","Kelas":"Tempat Pemakaman Umum"}}]}